{"type": "FeatureCollection", "features": [{"type": "Feature", "properties": {"nom": "Rhône"}, "geometry": {"type": "Polygon", "coordinates": [[[6.14804, 46.207], [6.14805, 46.2068], [6.14974, 46.20505], [6.14855, 46.20453], [6.14668, 46.20491], [6.14665, 46.20483], [6.14552, 46.20487], [6.14465, 46.2048], [6.14186, 46.20423], [6.13673, 46.20426], [6.13575, 46.20416], [6.13559, 46.20439], [6.1357, 46.20443], [6.13571, 46.20447], [6.13567, 46.20448], [6.13511, 46.20425], [6.13568, 46.20443], [6.13507, 46.20422], [6.13529, 46.20401], [6.13421, 46.20348], [6.13276, 46.20299], [6.13112, 46.20274], [6.12891, 46.20276], [6.12606, 46.20241], [6.12462, 46.20214], [6.12378, 46.20181], [6.12201, 46.20136], [6.12214, 46.20124], [6.12215, 46.2013], [6.12241, 46.20138], [6.12339, 46.20128], [6.12404, 46.20108], [6.12572, 46.20078], [6.12534, 46.20017], [6.12504, 46.20032], [6.12453, 46.20033], [6.12395, 46.20048], [6.12205, 46.20069], [6.12194, 46.20068], [6.12192, 46.20057], [6.12102, 46.20063], [6.12038, 46.20058], [6.12112, 46.20052], [6.12112, 46.20046], [6.11766, 46.20057], [6.11658, 46.20081], [6.11527, 46.20126], [6.11365, 46.202], [6.11223, 46.20246], [6.11106, 46.20256], [6.11077, 46.20242], [6.11006, 46.20231], [6.1086, 46.20171], [6.10782, 46.20111], [6.10752, 46.20074], [6.10725, 46.20057], [6.10666, 46.1997], [6.1057, 46.19895], [6.10368, 46.19712], [6.10271, 46.19612], [6.10101, 46.19418], [6.09991, 46.19313], [6.09906, 46.19258], [6.0976, 46.19205], [6.09717, 46.19197], [6.09689, 46.19173], [6.09627, 46.19184], [6.09555, 46.19167], [6.09389, 46.19162], [6.09276, 46.19174], [6.09093, 46.19211], [6.0909, 46.19219], [6.09017, 46.19233], [6.08871, 46.19291], [6.08794, 46.19291], [6.08808, 46.19303], [6.08805, 46.1931], [6.08738, 46.19355], [6.08695, 46.19412], [6.08643, 46.19507], [6.08625, 46.19568], [6.08629, 46.19614], [6.0867, 46.19687], [6.08745, 46.19754], [6.0889, 46.19834], [6.08942, 46.19875], [6.0896, 46.19937], [6.08967, 46.2004], [6.08982, 46.20094], [6.08992, 46.20186], [6.09024, 46.20305], [6.09068, 46.20387], [6.09147, 46.20586], [6.09208, 46.20692], [6.09234, 46.20716], [6.09311, 46.20821], [6.0932, 46.20847], [6.09326, 46.20869], [6.09322, 46.20894], [6.0929, 46.2095], [6.09194, 46.2104], [6.09159, 46.21056], [6.09107, 46.21064], [6.09039, 46.21058], [6.08936, 46.21023], [6.08896, 46.21002], [6.08893, 46.20993], [6.08848, 46.20978], [6.08836, 46.20982], [6.0871, 46.2092], [6.0864, 46.20873], [6.0852, 46.20777], [6.08518, 46.20767], [6.08492, 46.20747], [6.08421, 46.20657], [6.08309, 46.20557], [6.08242, 46.20465], [6.08177, 46.20405], [6.08183, 46.20392], [6.08168, 46.20395], [6.081, 46.20335], [6.0804, 46.20303], [6.08021, 46.2028], [6.07989, 46.20261], [6.07986, 46.20248], [6.07971, 46.20254], [6.07896, 46.20215], [6.07854, 46.20204], [6.07854, 46.20183], [6.07831, 46.20196], [6.07746, 46.20172], [6.07733, 46.20172], [6.07728, 46.20181], [6.07719, 46.20181], [6.07719, 46.20171], [6.0764, 46.20169], [6.07563, 46.20179], [6.07496, 46.20164], [6.07405, 46.20171], [6.07335, 46.20187], [6.07272, 46.20171], [6.07186, 46.20127], [6.07149, 46.20088], [6.07091, 46.19955], [6.07093, 46.19949], [6.07118, 46.19944], [6.07121, 46.19932], [6.0709, 46.19926], [6.07045, 46.19788], [6.07083, 46.19787], [6.07065, 46.1978], [6.07015, 46.1978], [6.06994, 46.19759], [6.06985, 46.19735], [6.06931, 46.19698], [6.06812, 46.19587], [6.06783, 46.19575], [6.0667, 46.19439], [6.06641, 46.19429], [6.06593, 46.19388], [6.06581, 46.19393], [6.06624, 46.19321], [6.06644, 46.19334], [6.06695, 46.1933], [6.06758, 46.19316], [6.06775, 46.1932], [6.06813, 46.19303], [6.06822, 46.19283], [6.06816, 46.19263], [6.0677, 46.192], [6.0675, 46.19203], [6.06793, 46.19258], [6.06802, 46.1928], [6.06798, 46.19293], [6.06624, 46.19291], [6.06583, 46.19303], [6.06544, 46.1933], [6.06536, 46.19348], [6.06522, 46.19348], [6.06238, 46.19275], [6.06053, 46.19248], [6.0602, 46.19232], [6.0602, 46.19199], [6.05995, 46.19225], [6.05992, 46.19237], [6.05841, 46.19206], [6.05536, 46.1919], [6.05369, 46.19206], [6.05344, 46.19192], [6.05331, 46.19206], [6.05316, 46.19209], [6.05188, 46.19213], [6.05079, 46.19227], [6.05065, 46.1922], [6.04978, 46.19241], [6.04946, 46.19227], [6.04938, 46.19191], [6.04934, 46.19234], [6.04915, 46.19254], [6.04671, 46.19339], [6.04498, 46.19422], [6.04463, 46.19429], [6.04455, 46.19444], [6.0443, 46.19449], [6.04416, 46.19443], [6.04367, 46.19453], [6.04251, 46.19498], [6.04214, 46.1947], [6.04188, 46.19475], [6.04197, 46.19507], [6.04173, 46.19509], [6.04158, 46.1953], [6.04091, 46.19562], [6.04033, 46.19602], [6.03839, 46.19747], [6.03754, 46.19788], [6.03664, 46.19814], [6.03565, 46.19821], [6.03432, 46.19817], [6.0333, 46.19798], [6.03225, 46.19741], [6.03203, 46.19695], [6.03187, 46.19682], [6.03183, 46.19601], [6.03169, 46.19601], [6.03167, 46.19686], [6.03151, 46.19687], [6.03107, 46.19653], [6.03083, 46.19608], [6.03081, 46.19558], [6.03073, 46.19546], [6.03059, 46.19455], [6.03078, 46.19383], [6.02941, 46.19332], [6.02985, 46.19272], [6.02994, 46.19271], [6.02987, 46.19268], [6.03036, 46.19204], [6.03053, 46.19201], [6.0305, 46.19194], [6.03145, 46.1907], [6.03187, 46.18979], [6.03194, 46.18913], [6.03183, 46.18845], [6.03143, 46.18773], [6.03102, 46.18723], [6.03009, 46.18651], [6.0249, 46.18342], [6.02387, 46.18288], [6.02304, 46.18252], [6.0209, 46.18185], [6.02084, 46.18182], [6.0209, 46.18171], [6.02068, 46.18161], [6.01949, 46.18139], [6.01876, 46.18115], [6.01806, 46.18079], [6.01747, 46.18029], [6.01549, 46.17806], [6.01557, 46.17805], [6.01443, 46.17733], [6.01328, 46.17697], [6.01135, 46.17658], [6.0111, 46.17642], [6.01101, 46.17655], [6.01097, 46.1764], [6.01082, 46.17628], [6.00985, 46.17642], [6.00948, 46.17639], [6.00796, 46.17574], [6.00617, 46.17518], [6.00395, 46.17495], [6.00282, 46.17509], [6.0021, 46.17511], [6.00178, 46.17503], [6.00032, 46.17549], [6.00004, 46.17547], [5.99796, 46.17598], [5.99674, 46.17618], [5.9961, 46.1762], [5.99551, 46.17638], [5.99544, 46.17628], [5.99495, 46.17646], [5.99362, 46.17666], [5.99269, 46.1766], [5.99191, 46.17625], [5.99154, 46.1762], [5.99083, 46.17561], [5.99042, 46.17504], [5.99013, 46.17458], [5.98981, 46.17365], [5.98975, 46.17307], [5.98985, 46.17292], [5.9898, 46.17291], [5.98971, 46.17216], [5.9896, 46.17194], [5.98983, 46.17185], [5.98911, 46.17072], [5.98905, 46.17023], [5.98889, 46.1702], [5.98891, 46.17013], [5.98878, 46.1701], [5.98861, 46.16986], [5.98852, 46.16991], [5.98842, 46.16981], [5.98819, 46.1698], [5.98821, 46.16971], [5.98805, 46.16961], [5.98824, 46.16948], [5.98779, 46.16932], [5.98719, 46.1693], [5.98609, 46.17035], [5.98576, 46.17086], [5.98565, 46.17149], [5.9852, 46.17245], [5.98486, 46.17282], [5.98386, 46.17325], [5.98331, 46.17328], [5.98307, 46.17318], [5.98285, 46.17264], [5.98277, 46.17171], [5.98226, 46.17116], [5.98198, 46.17054], [5.98198, 46.1702], [5.98241, 46.17024], [5.98181, 46.16968], [5.9817, 46.16912], [5.98174, 46.16866], [5.98141, 46.16783], [5.98137, 46.16737], [5.98102, 46.16665], [5.98102, 46.16643], [5.98088, 46.16646], [5.97957, 46.16452], [5.97825, 46.16311], [5.978, 46.16275], [5.9778, 46.16263], [5.97752, 46.16225], [5.97737, 46.16221], [5.97722, 46.1617], [5.97701, 46.16167], [5.97611, 46.16079], [5.97592, 46.16041], [5.97688, 46.1601], [5.97527, 46.15847], [5.97339, 46.15563], [5.9721, 46.15434], [5.97191, 46.15401], [5.97072, 46.15304], [5.96988, 46.15216], [5.96952, 46.1519], [5.96947, 46.15176], [5.96906, 46.15152], [5.96907, 46.15138], [5.96871, 46.1506], [5.96818, 46.15], [5.96821, 46.14989], [5.9675, 46.14882], [5.96747, 46.14836], [5.96737, 46.14829], [5.96757, 46.14798], [5.96753, 46.14778], [5.9672, 46.14759], [5.96682, 46.14694], [5.96734, 46.14686], [5.96726, 46.14675], [5.96692, 46.1468], [5.96671, 46.14673], [5.96655, 46.14646], [5.96606, 46.14612], [5.96555, 46.14551], [5.96548, 46.14553], [5.96542, 46.14545], [5.96549, 46.14543], [5.96511, 46.14481], [5.96495, 46.14422], [5.96505, 46.14337], [5.96522, 46.14233], [5.96547, 46.14209], [5.96535, 46.14215], [5.96539, 46.14174], [5.96563, 46.1416], [5.96553, 46.14163], [5.96562, 46.14141], [5.96557, 46.14132], [5.96586, 46.14112], [5.96573, 46.14116], [5.96586, 46.14078], [5.96614, 46.14064], [5.96601, 46.14066], [5.96629, 46.14028], [5.96654, 46.14021], [5.96635, 46.14025], [5.96722, 46.13879], [5.96728, 46.13844], [5.96721, 46.13824], [5.96749, 46.13822], [5.96752, 46.13839], [5.96781, 46.13843], [5.96798, 46.13837], [5.96816, 46.13812], [5.96772, 46.13839], [5.96763, 46.13837], [5.96755, 46.13816], [5.96713, 46.13814], [5.96647, 46.13751], [5.96585, 46.13656], [5.96421, 46.13547], [5.96349, 46.13535], [5.96155, 46.13475], [5.9612, 46.13471], [5.96118, 46.13477], [5.9613, 46.13484], [5.96088, 46.13484], [5.96009, 46.1347], [5.95943, 46.13447], [5.95942, 46.13441], [5.9595, 46.13444], [5.95941, 46.13432], [5.9595, 46.13429], [5.96076, 46.13452], [5.95994, 46.13416], [5.95919, 46.13401], [5.95793, 46.13337], [5.95549, 46.1316], [5.9548, 46.1312], [5.95478, 46.13098], [5.95469, 46.1309], [5.95425, 46.13077], [5.95236, 46.12982], [5.95046, 46.12855], [5.94868, 46.12808], [5.94842, 46.12782], [5.9481, 46.12765], [5.94625, 46.12768], [5.94497, 46.12756], [5.9437, 46.12767], [5.9437, 46.12867], [5.94433, 46.12851], [5.94458, 46.1286], [5.9437, 46.12891], [5.9437, 46.12926], [5.94491, 46.12876], [5.94654, 46.12879], [5.94754, 46.12893], [5.94972, 46.12996], [5.95014, 46.13004], [5.95048, 46.13031], [5.9527, 46.13108], [5.95308, 46.13131], [5.95355, 46.13141], [5.95423, 46.13172], [5.9584, 46.13458], [5.95947, 46.13519], [5.9636, 46.13624], [5.96476, 46.13679], [5.9656, 46.13757], [5.96597, 46.13809], [5.96605, 46.13836], [5.96598, 46.13881], [5.96541, 46.13971], [5.96516, 46.13982], [5.96515, 46.14016], [5.96474, 46.14051], [5.96415, 46.14136], [5.96371, 46.14226], [5.96359, 46.14279], [5.96364, 46.14361], [5.96356, 46.1441], [5.96366, 46.14414], [5.96369, 46.14445], [5.96356, 46.14456], [5.96356, 46.14496], [5.9641, 46.1454], [5.96401, 46.14597], [5.96498, 46.14696], [5.96527, 46.14691], [5.96529, 46.14697], [5.96512, 46.14706], [5.96525, 46.14725], [5.9655, 46.14738], [5.96536, 46.14754], [5.96565, 46.14772], [5.96588, 46.14769], [5.96604, 46.14791], [5.96621, 46.14799], [5.96626, 46.14815], [5.96653, 46.14832], [5.9667, 46.14872], [5.96666, 46.14895], [5.96678, 46.14934], [5.96734, 46.15021], [5.96799, 46.15074], [5.96838, 46.15196], [5.96923, 46.15283], [5.97069, 46.15412], [5.97261, 46.15617], [5.97307, 46.15714], [5.97376, 46.15822], [5.97434, 46.15951], [5.97501, 46.16076], [5.9751, 46.16088], [5.97522, 46.16084], [5.97518, 46.16077], [5.97528, 46.16074], [5.97532, 46.1608], [5.97546, 46.16069], [5.97562, 46.16071], [5.97562, 46.16064], [5.97573, 46.16083], [5.97517, 46.161], [5.97512, 46.16125], [5.97636, 46.1628], [5.97718, 46.16405], [5.97753, 46.16437], [5.97774, 46.16447], [5.97821, 46.16512], [5.97909, 46.16585], [5.97936, 46.16621], [5.97953, 46.1666], [5.97968, 46.16746], [5.97963, 46.16838], [5.98006, 46.16902], [5.98003, 46.16986], [5.97968, 46.17061], [5.97966, 46.17091], [5.97978, 46.17155], [5.98023, 46.17249], [5.98139, 46.17374], [5.98207, 46.17413], [5.98295, 46.17437], [5.98372, 46.17436], [5.98411, 46.17415], [5.9846, 46.17403], [5.98525, 46.1736], [5.98642, 46.17255], [5.98678, 46.17199], [5.98691, 46.17114], [5.98708, 46.17095], [5.98757, 46.17116], [5.98779, 46.17135], [5.988, 46.17174], [5.98805, 46.17236], [5.98846, 46.17298], [5.98852, 46.17375], [5.98961, 46.17596], [5.99007, 46.17644], [5.99048, 46.17669], [5.99222, 46.17752], [5.99312, 46.1776], [5.99721, 46.17714], [6.0003, 46.17642], [6.00315, 46.17588], [6.00495, 46.17579], [6.0064, 46.17605], [6.00715, 46.17644], [6.00756, 46.1765], [6.00929, 46.17709], [6.01131, 46.17736], [6.01331, 46.1778], [6.01412, 46.17814], [6.01453, 46.17841], [6.01522, 46.17908], [6.01652, 46.18067], [6.0174, 46.18138], [6.01853, 46.18191], [6.02231, 46.18306], [6.02336, 46.1835], [6.02657, 46.18535], [6.02992, 46.18744], [6.03047, 46.18804], [6.03077, 46.18879], [6.03079, 46.18946], [6.03044, 46.19033], [6.02987, 46.19091], [6.02855, 46.19165], [6.02793, 46.19245], [6.02873, 46.19274], [6.02902, 46.19238], [6.02855, 46.19304], [6.02776, 46.19273], [6.02763, 46.19277], [6.02702, 46.19255], [6.02665, 46.19261], [6.02634, 46.19331], [6.02649, 46.19338], [6.02645, 46.19354], [6.02617, 46.1937], [6.02602, 46.19406], [6.02635, 46.19473], [6.02654, 46.19484], [6.02651, 46.195], [6.02678, 46.19552], [6.02667, 46.19568], [6.02667, 46.19592], [6.0271, 46.19605], [6.02758, 46.19669], [6.02766, 46.19693], [6.02779, 46.19699], [6.02829, 46.19772], [6.02896, 46.19835], [6.02909, 46.19856], [6.03033, 46.19934], [6.02992, 46.19932], [6.02976, 46.19922], [6.02954, 46.19929], [6.02907, 46.19924], [6.02909, 46.1994], [6.02856, 46.19919], [6.02861, 46.19933], [6.02848, 46.1994], [6.02805, 46.19936], [6.02753, 46.19938], [6.02875, 46.19945], [6.02991, 46.19967], [6.03069, 46.19968], [6.03081, 46.1998], [6.03112, 46.19984], [6.03124, 46.19977], [6.03157, 46.19979], [6.03179, 46.19994], [6.0322, 46.2], [6.03249, 46.20026], [6.03285, 46.20015], [6.03318, 46.20026], [6.03388, 46.20007], [6.03531, 46.19996], [6.03555, 46.19984], [6.03567, 46.19987], [6.03695, 46.19951], [6.03856, 46.19892], [6.03977, 46.19825], [6.04052, 46.19773], [6.04208, 46.19726], [6.04243, 46.19762], [6.04281, 46.19828], [6.04299, 46.19886], [6.04314, 46.20005], [6.04302, 46.20066], [6.04324, 46.20097], [6.04392, 46.20068], [6.04423, 46.20038], [6.04418, 46.19946], [6.04404, 46.19895], [6.04407, 46.19849], [6.04424, 46.19839], [6.04438, 46.19816], [6.04418, 46.19786], [6.04454, 46.19764], [6.04463, 46.19747], [6.04449, 46.19731], [6.04418, 46.19721], [6.04431, 46.19711], [6.04431, 46.19692], [6.04411, 46.19648], [6.04413, 46.1964], [6.04475, 46.19615], [6.04506, 46.1959], [6.04711, 46.19546], [6.04833, 46.1951], [6.04914, 46.19494], [6.05139, 46.1947], [6.05386, 46.1941], [6.05622, 46.19407], [6.05675, 46.1942], [6.05891, 46.19427], [6.05902, 46.19456], [6.05877, 46.19469], [6.05904, 46.19463], [6.05911, 46.19441], [6.05906, 46.19429], [6.05915, 46.19424], [6.06091, 46.19403], [6.06194, 46.19399], [6.06231, 46.19398], [6.06293, 46.1941], [6.06397, 46.1944], [6.06475, 46.19472], [6.06584, 46.19543], [6.06636, 46.19591], [6.06699, 46.19681], [6.0671, 46.19718], [6.06764, 46.19822], [6.06762, 46.19832], [6.06836, 46.19964], [6.06867, 46.19997], [6.06868, 46.20009], [6.06897, 46.20044], [6.06954, 46.20097], [6.06979, 46.20136], [6.06996, 46.20137], [6.07024, 46.20171], [6.07081, 46.20205], [6.0717, 46.2023], [6.07214, 46.20252], [6.07353, 46.2029], [6.07327, 46.20305], [6.07411, 46.20299], [6.0746, 46.20305], [6.07491, 46.2032], [6.07496, 46.20331], [6.07518, 46.20332], [6.07525, 46.20304], [6.07572, 46.20294], [6.07772, 46.20324], [6.0777, 46.20334], [6.07885, 46.20337], [6.07925, 46.2035], [6.0795, 46.20369], [6.07961, 46.20365], [6.08103, 46.20476], [6.0817, 46.20548], [6.08211, 46.20621], [6.08267, 46.20682], [6.08293, 46.20745], [6.08319, 46.20779], [6.08557, 46.21001], [6.08585, 46.21023], [6.08839, 46.21144], [6.08905, 46.21156], [6.09004, 46.21202], [6.09072, 46.21204], [6.09218, 46.21164], [6.09284, 46.21119], [6.09279, 46.21127], [6.09284, 46.21131], [6.09282, 46.21126], [6.09324, 46.21089], [6.09392, 46.21044], [6.0942, 46.20986], [6.09444, 46.20975], [6.09458, 46.20957], [6.09449, 46.20937], [6.09447, 46.20863], [6.0946, 46.2083], [6.09445, 46.20799], [6.09394, 46.20731], [6.09361, 46.20709], [6.0929, 46.20624], [6.09272, 46.20588], [6.09256, 46.20506], [6.09147, 46.20323], [6.09085, 46.20113], [6.09103, 46.20021], [6.09169, 46.20004], [6.09106, 46.20002], [6.09121, 46.19938], [6.09117, 46.19875], [6.09053, 46.19796], [6.09038, 46.1979], [6.09048, 46.19789], [6.08992, 46.19761], [6.0891, 46.19739], [6.08836, 46.19693], [6.08827, 46.19697], [6.08794, 46.19658], [6.08785, 46.19661], [6.08772, 46.19645], [6.08781, 46.19641], [6.08759, 46.19615], [6.08769, 46.1961], [6.08766, 46.19574], [6.08791, 46.19518], [6.08859, 46.19444], [6.08889, 46.19438], [6.08886, 46.19432], [6.08913, 46.19416], [6.09086, 46.19335], [6.09219, 46.19299], [6.09258, 46.19303], [6.09269, 46.19291], [6.09366, 46.19268], [6.09529, 46.19268], [6.09667, 46.19291], [6.09702, 46.19304], [6.09791, 46.19305], [6.09884, 46.19343], [6.10071, 46.19507], [6.10199, 46.19659], [6.1026, 46.19723], [6.10292, 46.19745], [6.10292, 46.19755], [6.10316, 46.19782], [6.1051, 46.19953], [6.10627, 46.20111], [6.10858, 46.20281], [6.10929, 46.20309], [6.11102, 46.2033], [6.11131, 46.20325], [6.1115, 46.20335], [6.11289, 46.20324], [6.11309, 46.20312], [6.11338, 46.20317], [6.11445, 46.20277], [6.11582, 46.20207], [6.11629, 46.2019], [6.11639, 46.20185], [6.1163, 46.20176], [6.11682, 46.20156], [6.11826, 46.20125], [6.11942, 46.20122], [6.11977, 46.20139], [6.12091, 46.20158], [6.12104, 46.2017], [6.12233, 46.20205], [6.12335, 46.20251], [6.12449, 46.20274], [6.12535, 46.20317], [6.12597, 46.20333], [6.12739, 46.20349], [6.12824, 46.20368], [6.12969, 46.20379], [6.13156, 46.20347], [6.13175, 46.20338], [6.13244, 46.20344], [6.13308, 46.20359], [6.1337, 46.20385], [6.13498, 46.20459], [6.13559, 46.20508], [6.13626, 46.20534], [6.13705, 46.20541], [6.1396, 46.20525], [6.14188, 46.2054], [6.14271, 46.20554], [6.14726, 46.20679], [6.14762, 46.2068], [6.14804, 46.207]], [[6.13643, 46.20442], [6.13643, 46.20441], [6.13672, 46.20442], [6.13643, 46.20442]], [[6.13672, 46.20437], [6.13643, 46.20435], [6.13672, 46.20436], [6.13672, 46.20437]], [[6.13673, 46.20431], [6.13644, 46.20429], [6.13673, 46.2043], [6.13673, 46.20431]], [[6.13521, 46.20441], [6.13552, 46.20459], [6.1352, 46.20441], [6.13521, 46.20441]], [[6.1351, 46.20451], [6.13558, 46.20482], [6.13509, 46.20451], [6.1351, 46.20451]], [[6.02664, 46.19498], [6.02673, 46.19518], [6.02663, 46.1952], [6.02653, 46.19501], [6.02664, 46.19498]], [[6.14767, 46.20625], [6.14742, 46.2062], [6.14762, 46.20571], [6.14787, 46.20576], [6.14812, 46.20609], [6.14767, 46.20625]], [[6.13815, 46.20491], [6.13641, 46.20465], [6.13641, 46.20447], [6.13813, 46.20468], [6.14021, 46.20471], [6.13871, 46.2048], [6.13815, 46.20491]], [[6.14393, 46.20554], [6.14164, 46.20477], [6.14078, 46.20482], [6.1407, 46.20468], [6.14161, 46.20457], [6.14205, 46.2046], [6.14432, 46.20508], [6.14454, 46.20519], [6.14454, 46.20528], [6.1442, 46.20552], [6.14393, 46.20554]]]}}, {"type": "Feature", "properties": {"nom": "Arve"}, "geometry": {"type": "Polygon", "coordinates": [[[6.33513, 46.12252], [6.3352, 46.12336], [6.33484, 46.12468], [6.33468, 46.12497], [6.33357, 46.12601], [6.33162, 46.12697], [6.33117, 46.12705], [6.33089, 46.1272], [6.3307, 46.12747], [6.33035, 46.12836], [6.32952, 46.1296], [6.32898, 46.12998], [6.32822, 46.13124], [6.32671, 46.1329], [6.32666, 46.13306], [6.32646, 46.13318], [6.32616, 46.13359], [6.32617, 46.13368], [6.32564, 46.13428], [6.3248, 46.13495], [6.32294, 46.1356], [6.32112, 46.13603], [6.31876, 46.13699], [6.31782, 46.13706], [6.31676, 46.13698], [6.31582, 46.13664], [6.31486, 46.13599], [6.3134, 46.13455], [6.31221, 46.13392], [6.31086, 46.13392], [6.3104, 46.13415], [6.30938, 46.13431], [6.30859, 46.13419], [6.30802, 46.13464], [6.30798, 46.13486], [6.30804, 46.13503], [6.30915, 46.13608], [6.30936, 46.13641], [6.30941, 46.13662], [6.30914, 46.13709], [6.30791, 46.13739], [6.30762, 46.13763], [6.30735, 46.13821], [6.30708, 46.1384], [6.30678, 46.13851], [6.30578, 46.13843], [6.30549, 46.13852], [6.30491, 46.13919], [6.30457, 46.13948], [6.30312, 46.13995], [6.30266, 46.14045], [6.30256, 46.14092], [6.30266, 46.1411], [6.30317, 46.14162], [6.30352, 46.14176], [6.30423, 46.14265], [6.30403, 46.14321], [6.30361, 46.14359], [6.3034, 46.14403], [6.30301, 46.14429], [6.30159, 46.14485], [6.30141, 46.14518], [6.30121, 46.14536], [6.30094, 46.14545], [6.30055, 46.14573], [6.30024, 46.14646], [6.29975, 46.14692], [6.2994, 46.14714], [6.29907, 46.14716], [6.29774, 46.14675], [6.29718, 46.14674], [6.2968, 46.14691], [6.2959, 46.14788], [6.29542, 46.14854], [6.29495, 46.1489], [6.29412, 46.14929], [6.29237, 46.14979], [6.29049, 46.14978], [6.28939, 46.14992], [6.28795, 46.15023], [6.28644, 46.1507], [6.28575, 46.15102], [6.28407, 46.15145], [6.27962, 46.15217], [6.27865, 46.15252], [6.27697, 46.15258], [6.27622, 46.15252], [6.27496, 46.15226], [6.2733, 46.15165], [6.27149, 46.1507], [6.27092, 46.1502], [6.27034, 46.14944], [6.26932, 46.14889], [6.26809, 46.14858], [6.26767, 46.14858], [6.26514, 46.14918], [6.26493, 46.14906], [6.26427, 46.14825], [6.26358, 46.14771], [6.26321, 46.14762], [6.26265, 46.14764], [6.26203, 46.14847], [6.2619, 46.14925], [6.26174, 46.14959], [6.26184, 46.14985], [6.26173, 46.15006], [6.26155, 46.15093], [6.26133, 46.15141], [6.26095, 46.15177], [6.25904, 46.15314], [6.25767, 46.15344], [6.25699, 46.15374], [6.25684, 46.15389], [6.25644, 46.15441], [6.25646, 46.15491], [6.25638, 46.15513], [6.25648, 46.1555], [6.25637, 46.15598], [6.25582, 46.15696], [6.25523, 46.15755], [6.2543, 46.15809], [6.25145, 46.15891], [6.24899, 46.15885], [6.24838, 46.15896], [6.24792, 46.15924], [6.24773, 46.1595], [6.24764, 46.16068], [6.24728, 46.16172], [6.24697, 46.16201], [6.24564, 46.16261], [6.24545, 46.16287], [6.24445, 46.16347], [6.24353, 46.1635], [6.24302, 46.16337], [6.24252, 46.16335], [6.24196, 46.16351], [6.24176, 46.16346], [6.24125, 46.16365], [6.24125, 46.16388], [6.2422, 46.16527], [6.24253, 46.16602], [6.24263, 46.16643], [6.24299, 46.16716], [6.24352, 46.16775], [6.24359, 46.16797], [6.24414, 46.16837], [6.24447, 46.16873], [6.24459, 46.16906], [6.24539, 46.17012], [6.24576, 46.17175], [6.2458, 46.17258], [6.24571, 46.17304], [6.2456, 46.17319], [6.24532, 46.17331], [6.24439, 46.17352], [6.24312, 46.17367], [6.24205, 46.17356], [6.24188, 46.17367], [6.24142, 46.17369], [6.24034, 46.17421], [6.23996, 46.17455], [6.2404, 46.17482], [6.24048, 46.17506], [6.23973, 46.17522], [6.23882, 46.17578], [6.23723, 46.17626], [6.23489, 46.1787], [6.23484, 46.17908], [6.23447, 46.17969], [6.23267, 46.18194], [6.23242, 46.18204], [6.23196, 46.18243], [6.2313, 46.1827], [6.23085, 46.18303], [6.23022, 46.18316], [6.22899, 46.18365], [6.22858, 46.18373], [6.22828, 46.1839], [6.22596, 46.18453], [6.22526, 46.18463], [6.22482, 46.1846], [6.22413, 46.18445], [6.22377, 46.18429], [6.22211, 46.18303], [6.22086, 46.18021], [6.22073, 46.17976], [6.22079, 46.17912], [6.22071, 46.17856], [6.22088, 46.17803], [6.22082, 46.17712], [6.22066, 46.17646], [6.22037, 46.176], [6.2202, 46.17581], [6.21928, 46.1752], [6.21758, 46.17482], [6.21692, 46.17447], [6.21578, 46.17419], [6.21539, 46.17401], [6.21423, 46.17403], [6.21196, 46.17439], [6.21009, 46.1744], [6.20771, 46.17428], [6.20593, 46.17405], [6.20211, 46.17379], [6.1982, 46.17437], [6.1962, 46.17477], [6.19488, 46.17467], [6.19418, 46.17446], [6.19337, 46.17398], [6.19168, 46.1736], [6.19106, 46.1736], [6.19025, 46.17378], [6.18933, 46.17411], [6.18814, 46.17497], [6.18728, 46.17617], [6.18671, 46.17677], [6.18632, 46.1775], [6.18627, 46.17747], [6.18624, 46.17796], [6.18588, 46.17834], [6.18488, 46.17885], [6.18417, 46.17903], [6.18254, 46.17909], [6.18231, 46.17903], [6.18181, 46.17906], [6.18037, 46.17935], [6.1796, 46.17931], [6.17898, 46.17905], [6.17836, 46.17863], [6.1775, 46.17757], [6.17381, 46.17598], [6.17179, 46.17546], [6.17115, 46.17539], [6.17056, 46.17541], [6.16946, 46.17573], [6.16883, 46.1762], [6.16863, 46.17655], [6.16852, 46.17724], [6.16874, 46.17771], [6.16948, 46.17849], [6.16996, 46.17884], [6.17009, 46.17905], [6.17015, 46.17903], [6.17032, 46.17922], [6.17059, 46.17929], [6.17094, 46.17956], [6.17116, 46.17984], [6.1712, 46.1804], [6.17107, 46.18155], [6.17097, 46.1821], [6.17079, 46.18248], [6.17079, 46.18275], [6.17056, 46.18337], [6.16992, 46.18413], [6.16981, 46.18461], [6.16919, 46.18563], [6.16838, 46.1865], [6.16762, 46.18707], [6.16671, 46.18752], [6.16574, 46.18781], [6.16491, 46.18786], [6.16428, 46.18775], [6.16372, 46.18753], [6.16331, 46.18724], [6.16299, 46.18685], [6.16283, 46.18637], [6.16285, 46.18531], [6.16265, 46.18481], [6.16177, 46.1836], [6.16122, 46.18263], [6.1604, 46.1815], [6.16013, 46.18093], [6.16002, 46.18031], [6.16012, 46.17925], [6.15992, 46.17891], [6.15911, 46.17813], [6.15821, 46.17763], [6.15751, 46.1775], [6.15659, 46.17747], [6.15569, 46.17769], [6.15494, 46.17815], [6.15473, 46.1781], [6.15452, 46.1782], [6.15441, 46.17829], [6.15447, 46.17834], [6.15364, 46.17912], [6.15285, 46.18012], [6.15272, 46.18047], [6.15265, 46.18125], [6.15285, 46.18186], [6.15295, 46.18251], [6.15325, 46.18331], [6.15382, 46.18417], [6.154, 46.18459], [6.15395, 46.1852], [6.15368, 46.18568], [6.15336, 46.18597], [6.15227, 46.18636], [6.14852, 46.18659], [6.14702, 46.18656], [6.14674, 46.18645], [6.14542, 46.1865], [6.14529, 46.18639], [6.14345, 46.18668], [6.1425, 46.18707], [6.14209, 46.18732], [6.1415, 46.18784], [6.14096, 46.18896], [6.14103, 46.18899], [6.13926, 46.1927], [6.13894, 46.19315], [6.13829, 46.19365], [6.13635, 46.19469], [6.13605, 46.19493], [6.13391, 46.19589], [6.13208, 46.19695], [6.13166, 46.1971], [6.13129, 46.19741], [6.13086, 46.19759], [6.12975, 46.19838], [6.12852, 46.19903], [6.12801, 46.19928], [6.12796, 46.19924], [6.12693, 46.19982], [6.12653, 46.19996], [6.12559, 46.20015], [6.12531, 46.20012], [6.12572, 46.20078], [6.12837, 46.19998], [6.13039, 46.19882], [6.1333, 46.19682], [6.13647, 46.19537], [6.13818, 46.19441], [6.13909, 46.194], [6.13996, 46.19311], [6.14226, 46.18822], [6.14247, 46.18797], [6.14311, 46.18757], [6.14386, 46.18729], [6.14513, 46.18703], [6.14772, 46.18716], [6.14776, 46.18709], [6.14938, 46.18713], [6.15047, 46.187], [6.1525, 46.18692], [6.15311, 46.18677], [6.15391, 46.18635], [6.15446, 46.18579], [6.15475, 46.18529], [6.15492, 46.18473], [6.15479, 46.1845], [6.15488, 46.18418], [6.15445, 46.18303], [6.15404, 46.18153], [6.15394, 46.18073], [6.15435, 46.17992], [6.15445, 46.17955], [6.15462, 46.17943], [6.15496, 46.17888], [6.15551, 46.17844], [6.15647, 46.17813], [6.15715, 46.17808], [6.15787, 46.17813], [6.15859, 46.1784], [6.15909, 46.17877], [6.15929, 46.1794], [6.15941, 46.1808], [6.15965, 46.18152], [6.16094, 46.18354], [6.16179, 46.18467], [6.16192, 46.18518], [6.16196, 46.18572], [6.16184, 46.18615], [6.16202, 46.18726], [6.1625, 46.1878], [6.16298, 46.1881], [6.16337, 46.18826], [6.16447, 46.18841], [6.16539, 46.18842], [6.16635, 46.18821], [6.16766, 46.1877], [6.16842, 46.18726], [6.1689, 46.18681], [6.16902, 46.18679], [6.16979, 46.18592], [6.17101, 46.18404], [6.17152, 46.18308], [6.17177, 46.18236], [6.17192, 46.18074], [6.17175, 46.17902], [6.17168, 46.17879], [6.17138, 46.1784], [6.1705, 46.1777], [6.17026, 46.17738], [6.16945, 46.17678], [6.16954, 46.17652], [6.1698, 46.17629], [6.17042, 46.17602], [6.17172, 46.17598], [6.17228, 46.17608], [6.1741, 46.17666], [6.17655, 46.17766], [6.17698, 46.17798], [6.17809, 46.17923], [6.17865, 46.17954], [6.1793, 46.17976], [6.18022, 46.1799], [6.1821, 46.17967], [6.18361, 46.17962], [6.18519, 46.17938], [6.18665, 46.1785], [6.18921, 46.17487], [6.18975, 46.17439], [6.19076, 46.17406], [6.19173, 46.17408], [6.1923, 46.1742], [6.19325, 46.17448], [6.19457, 46.17502], [6.196, 46.17529], [6.19801, 46.17511], [6.20101, 46.17449], [6.207, 46.17455], [6.20817, 46.17467], [6.21183, 46.17481], [6.21406, 46.17453], [6.21612, 46.17466], [6.21764, 46.17528], [6.21821, 46.17571], [6.2182, 46.17586], [6.21803, 46.17611], [6.21807, 46.17629], [6.21842, 46.17662], [6.21901, 46.17756], [6.21922, 46.17857], [6.21917, 46.17873], [6.21951, 46.17928], [6.21981, 46.17934], [6.21979, 46.17971], [6.22017, 46.18066], [6.22121, 46.18257], [6.22168, 46.18321], [6.22255, 46.18411], [6.22345, 46.18462], [6.22399, 46.18484], [6.22475, 46.18502], [6.22561, 46.18506], [6.22681, 46.18496], [6.22798, 46.18457], [6.22957, 46.1839], [6.23168, 46.18327], [6.23245, 46.18284], [6.23399, 46.1813], [6.23567, 46.17897], [6.23611, 46.17821], [6.23714, 46.17712], [6.23755, 46.17679], [6.23833, 46.17639], [6.2401, 46.17595], [6.24044, 46.17559], [6.24086, 46.17539], [6.24226, 46.1755], [6.24264, 46.17545], [6.24364, 46.17512], [6.24434, 46.17437], [6.24539, 46.17398], [6.24579, 46.17374], [6.246, 46.17345], [6.24633, 46.17325], [6.24659, 46.17285], [6.24661, 46.17246], [6.24644, 46.17226], [6.24651, 46.17214], [6.24646, 46.1712], [6.24623, 46.17032], [6.24626, 46.16995], [6.24599, 46.16953], [6.24478, 46.1685], [6.24394, 46.16761], [6.24324, 46.16673], [6.24261, 46.1648], [6.24228, 46.16468], [6.24224, 46.16439], [6.24204, 46.16417], [6.24212, 46.1639], [6.24235, 46.16374], [6.2428, 46.1637], [6.2436, 46.16383], [6.24379, 46.16378], [6.24395, 46.16385], [6.24393, 46.16396], [6.24415, 46.16401], [6.24455, 46.16398], [6.24543, 46.16352], [6.24686, 46.16237], [6.24739, 46.16223], [6.24781, 46.16199], [6.24809, 46.16166], [6.24831, 46.16103], [6.24836, 46.16062], [6.24825, 46.15987], [6.2484, 46.15963], [6.24873, 46.15952], [6.24923, 46.15948], [6.25016, 46.15983], [6.25098, 46.15986], [6.25122, 46.15978], [6.25141, 46.1595], [6.25159, 46.15939], [6.25377, 46.15876], [6.25576, 46.1579], [6.25642, 46.15709], [6.25668, 46.15664], [6.2569, 46.15577], [6.25696, 46.15459], [6.25718, 46.15419], [6.25753, 46.15393], [6.25774, 46.15387], [6.25925, 46.15368], [6.25994, 46.15321], [6.26144, 46.15192], [6.26189, 46.15145], [6.26242, 46.15063], [6.26252, 46.15017], [6.26276, 46.14967], [6.2626, 46.1487], [6.26269, 46.14837], [6.26328, 46.14837], [6.264, 46.14875], [6.26437, 46.14947], [6.26447, 46.14947], [6.26473, 46.14983], [6.26506, 46.15001], [6.26554, 46.15001], [6.26608, 46.14991], [6.26759, 46.14913], [6.26852, 46.14915], [6.26894, 46.14932], [6.26999, 46.15006], [6.2702, 46.15026], [6.27041, 46.15067], [6.27107, 46.15118], [6.27285, 46.15212], [6.27458, 46.15272], [6.27611, 46.15302], [6.27723, 46.15314], [6.27817, 46.15312], [6.28022, 46.15264], [6.28244, 46.15231], [6.28488, 46.15178], [6.28593, 46.15149], [6.28784, 46.15069], [6.28895, 46.15039], [6.29133, 46.1502], [6.29254, 46.15022], [6.29399, 46.14984], [6.29535, 46.14918], [6.296, 46.14877], [6.29647, 46.14821], [6.29681, 46.14755], [6.29706, 46.14735], [6.29807, 46.1473], [6.29911, 46.14756], [6.30003, 46.14732], [6.30071, 46.14668], [6.30184, 46.1451], [6.30238, 46.14476], [6.30306, 46.14464], [6.30344, 46.14442], [6.30395, 46.14374], [6.30417, 46.14359], [6.30452, 46.14316], [6.30463, 46.14282], [6.30453, 46.14246], [6.304, 46.14169], [6.30325, 46.14125], [6.30311, 46.1411], [6.30297, 46.14085], [6.30304, 46.14064], [6.30339, 46.14029], [6.30463, 46.13972], [6.30546, 46.13907], [6.30597, 46.13895], [6.30613, 46.13881], [6.30677, 46.13878], [6.30729, 46.13866], [6.30751, 46.13848], [6.30806, 46.13772], [6.30861, 46.13751], [6.30917, 46.13748], [6.30976, 46.13731], [6.30992, 46.13708], [6.30985, 46.13666], [6.30988, 46.13587], [6.30939, 46.1354], [6.3087, 46.13505], [6.3087, 46.13489], [6.30897, 46.13466], [6.30985, 46.13465], [6.31129, 46.13419], [6.31182, 46.13425], [6.31256, 46.13465], [6.31348, 46.13565], [6.31474, 46.13657], [6.31622, 46.13731], [6.31724, 46.13753], [6.31916, 46.13733], [6.32162, 46.13643], [6.32251, 46.13627], [6.32317, 46.13602], [6.32337, 46.13586], [6.324, 46.13573], [6.32409, 46.13568], [6.32403, 46.13563], [6.32423, 46.13562], [6.32499, 46.13527], [6.32543, 46.13489], [6.32594, 46.13462], [6.32816, 46.13249], [6.32826, 46.13214], [6.32844, 46.1321], [6.32873, 46.13174], [6.32912, 46.13149], [6.32956, 46.13108], [6.33011, 46.13047], [6.33025, 46.12994], [6.33055, 46.12967], [6.33087, 46.12906], [6.33162, 46.12835], [6.33176, 46.12811], [6.33194, 46.12805], [6.3322, 46.12778], [6.33244, 46.12769], [6.33254, 46.12742], [6.33298, 46.12701], [6.33395, 46.12658], [6.33446, 46.12627], [6.33484, 46.12573], [6.33521, 46.12543], [6.33536, 46.12523], [6.33591, 46.12384], [6.33598, 46.12307], [6.33617, 46.1225], [6.33513, 46.12252]], [[6.24112, 46.17531], [6.241, 46.17526], [6.2411, 46.17517], [6.2412, 46.17523], [6.24112, 46.17531]], [[6.2437, 46.17486], [6.24375, 46.17493], [6.24346, 46.17507], [6.24356, 46.17495], [6.2437, 46.17486]], [[6.17089, 46.17845], [6.16976, 46.17822], [6.16945, 46.17801], [6.16991, 46.17801], [6.17089, 46.17845]], [[6.26567, 46.14995], [6.26496, 46.14992], [6.26455, 46.14943], [6.26567, 46.14995]], [[6.25073, 46.15983], [6.25015, 46.15972], [6.24967, 46.15952], [6.25127, 46.15948], [6.25117, 46.15968], [6.25073, 46.15983]], [[6.17056, 46.17856], [6.171, 46.1789], [6.17122, 46.17941], [6.17115, 46.17948], [6.1707, 46.17918], [6.17041, 46.17884], [6.17018, 46.17882], [6.16972, 46.17847], [6.17056, 46.17856]], [[6.15369, 46.18327], [6.15335, 46.18248], [6.15318, 46.18168], [6.15322, 46.1813], [6.15354, 46.18159], [6.15373, 46.18195], [6.15377, 46.1825], [6.1539, 46.1829], [6.15376, 46.18325], [6.15369, 46.18327]], [[6.24337, 46.17492], [6.24331, 46.17512], [6.24321, 46.17516], [6.2422, 46.17531], [6.24151, 46.17527], [6.24101, 46.175], [6.24115, 46.17485], [6.24282, 46.17457], [6.24329, 46.17438], [6.2437, 46.17435], [6.24388, 46.17441], [6.24337, 46.17492]], [[6.21871, 46.17564], [6.21983, 46.17596], [6.21998, 46.17615], [6.22001, 46.17634], [6.21984, 46.17719], [6.2201, 46.1784], [6.21985, 46.17921], [6.21961, 46.17918], [6.21946, 46.17899], [6.21918, 46.17759], [6.21866, 46.17666], [6.21817, 46.17623], [6.21816, 46.17607], [6.21832, 46.17584], [6.2185, 46.17581], [6.21854, 46.17566], [6.21871, 46.17564]]]}}, {"type": "Feature", "properties": {"nom": "Léman"}, "geometry": {"type": "Polygon", "coordinates": [[[6.3391, 46.36962], [6.33841, 46.36963], [6.33787, 46.36987], [6.33793, 46.36995], [6.33786, 46.36998], [6.3376, 46.37], [6.33765, 46.36985], [6.3367, 46.37011], [6.33568, 46.37028], [6.33408, 46.37031], [6.33349, 46.3704], [6.33288, 46.37022], [6.3316, 46.37022], [6.33076, 46.36977], [6.32993, 46.36983], [6.32898, 46.37014], [6.32888, 46.37028], [6.32862, 46.37033], [6.32629, 46.37168], [6.32615, 46.37169], [6.3254, 46.37136], [6.3255, 46.37132], [6.32572, 46.37141], [6.32579, 46.37131], [6.32571, 46.37126], [6.32496, 46.37115], [6.32454, 46.37125], [6.32462, 46.37106], [6.32367, 46.37168], [6.32355, 46.3716], [6.32432, 46.3711], [6.32442, 46.37081], [6.32329, 46.37], [6.32233, 46.36958], [6.32226, 46.36933], [6.32179, 46.36916], [6.32134, 46.36912], [6.32138, 46.36897], [6.32088, 46.36894], [6.32076, 46.36935], [6.31957, 46.36938], [6.31944, 46.36919], [6.31936, 46.36937], [6.31892, 46.36933], [6.31894, 46.36923], [6.31838, 46.36914], [6.3174, 46.36881], [6.31553, 46.36887], [6.31546, 46.36878], [6.3147, 46.36855], [6.31404, 46.36802], [6.31322, 46.36796], [6.31168, 46.36768], [6.30858, 46.36647], [6.30685, 46.36636], [6.30513, 46.36669], [6.3042, 46.36646], [6.30378, 46.36612], [6.30325, 46.36594], [6.30299, 46.36574], [6.30259, 46.36575], [6.30208, 46.36593], [6.30163, 46.36558], [6.30169, 46.36556], [6.30201, 46.36582], [6.30217, 46.36587], [6.30305, 46.36547], [6.30262, 46.36485], [6.30266, 46.36478], [6.30206, 46.36419], [6.30182, 46.3643], [6.30124, 46.36485], [6.30114, 46.36506], [6.30144, 46.36534], [6.30114, 46.36519], [6.30116, 46.36533], [6.30107, 46.36535], [6.30101, 46.36524], [6.30113, 46.36485], [6.30131, 46.36465], [6.30167, 46.36436], [6.30211, 46.36412], [6.30154, 46.36382], [6.30071, 46.36363], [6.30039, 46.36343], [6.29942, 46.36306], [6.29803, 46.36222], [6.29766, 46.36187], [6.29692, 46.36144], [6.2959, 46.36109], [6.29503, 46.36102], [6.29493, 46.36106], [6.29492, 46.36122], [6.29481, 46.3613], [6.29468, 46.36131], [6.29452, 46.36124], [6.29444, 46.36112], [6.29463, 46.36127], [6.29485, 46.36126], [6.2949, 46.36118], [6.29485, 46.36101], [6.29423, 46.3608], [6.29418, 46.36066], [6.29177, 46.35958], [6.29143, 46.35936], [6.29087, 46.35866], [6.29021, 46.35842], [6.28985, 46.35817], [6.28919, 46.35788], [6.28884, 46.35759], [6.28833, 46.35738], [6.28667, 46.35642], [6.28651, 46.35641], [6.28655, 46.35626], [6.28647, 46.35612], [6.28559, 46.35565], [6.28562, 46.35557], [6.28524, 46.35518], [6.28443, 46.35459], [6.28414, 46.35421], [6.28335, 46.35355], [6.28229, 46.35297], [6.2817, 46.35285], [6.2815, 46.35278], [6.28173, 46.35284], [6.2819, 46.35272], [6.28134, 46.35239], [6.28098, 46.35171], [6.28058, 46.35123], [6.27977, 46.35097], [6.27941, 46.3509], [6.2793, 46.35098], [6.27915, 46.35096], [6.27931, 46.35095], [6.27949, 46.35079], [6.27921, 46.35055], [6.27836, 46.35024], [6.27804, 46.35036], [6.27829, 46.3502], [6.27816, 46.35012], [6.27768, 46.35026], [6.27682, 46.35], [6.27699, 46.34991], [6.27711, 46.34996], [6.27757, 46.34985], [6.27744, 46.3497], [6.27731, 46.34973], [6.27725, 46.34964], [6.27693, 46.34975], [6.27659, 46.34969], [6.27694, 46.34896], [6.27697, 46.34862], [6.27688, 46.3485], [6.27655, 46.34855], [6.27653, 46.34848], [6.27673, 46.3485], [6.27688, 46.34834], [6.27675, 46.34709], [6.27691, 46.34654], [6.27684, 46.34605], [6.27695, 46.34553], [6.27683, 46.34531], [6.27685, 46.3452], [6.27618, 46.34412], [6.27514, 46.34291], [6.27511, 46.34274], [6.27379, 46.34072], [6.2733, 46.34001], [6.27275, 46.33941], [6.27229, 46.33864], [6.27167, 46.33811], [6.27169, 46.338], [6.27159, 46.33785], [6.27102, 46.33738], [6.27074, 46.33703], [6.27008, 46.33675], [6.2698, 46.33678], [6.26937, 46.3367], [6.26915, 46.33645], [6.26881, 46.33626], [6.2687, 46.3361], [6.26881, 46.33576], [6.26775, 46.33485], [6.26752, 46.33449], [6.26691, 46.33396], [6.26618, 46.333], [6.26589, 46.33284], [6.26576, 46.33263], [6.26583, 46.33257], [6.26578, 46.33232], [6.26585, 46.33227], [6.26577, 46.3321], [6.26528, 46.33159], [6.26499, 46.33147], [6.26458, 46.33069], [6.26389, 46.33024], [6.26316, 46.32996], [6.26284, 46.32966], [6.26194, 46.32925], [6.26228, 46.32875], [6.26227, 46.32848], [6.26213, 46.32813], [6.2622, 46.32792], [6.26213, 46.32781], [6.261, 46.32705], [6.25921, 46.32646], [6.25879, 46.32623], [6.25837, 46.32584], [6.25784, 46.32566], [6.25737, 46.32514], [6.25628, 46.32421], [6.25629, 46.32398], [6.25606, 46.32371], [6.25593, 46.3234], [6.25621, 46.32346], [6.25658, 46.32324], [6.25718, 46.32255], [6.25766, 46.32184], [6.25815, 46.32078], [6.25824, 46.32045], [6.25819, 46.32002], [6.25757, 46.31895], [6.25629, 46.31712], [6.25558, 46.31537], [6.25538, 46.31543], [6.25466, 46.31499], [6.25436, 46.31507], [6.25457, 46.31493], [6.25464, 46.3148], [6.25484, 46.31471], [6.25472, 46.31457], [6.25457, 46.31456], [6.25424, 46.31495], [6.25422, 46.31486], [6.25452, 46.31453], [6.25457, 46.31417], [6.25377, 46.31257], [6.25359, 46.31191], [6.25317, 46.31124], [6.25284, 46.31116], [6.25299, 46.31099], [6.25248, 46.31056], [6.25197, 46.30981], [6.25121, 46.30917], [6.25088, 46.30867], [6.25066, 46.30858], [6.25031, 46.30886], [6.2502, 46.30888], [6.25002, 46.30884], [6.25004, 46.30878], [6.2503, 46.30883], [6.25062, 46.30852], [6.25039, 46.30847], [6.25018, 46.30864], [6.25015, 46.30864], [6.25036, 46.30832], [6.24995, 46.30776], [6.24971, 46.30722], [6.24861, 46.30632], [6.24817, 46.30639], [6.24792, 46.30626], [6.24824, 46.30637], [6.24833, 46.30631], [6.24806, 46.30621], [6.24805, 46.30607], [6.24684, 46.3058], [6.24626, 46.30576], [6.24536, 46.30536], [6.24485, 46.30502], [6.24437, 46.30485], [6.24135, 46.30435], [6.24091, 46.30403], [6.24056, 46.30397], [6.24082, 46.30357], [6.24143, 46.30315], [6.24149, 46.30239], [6.24157, 46.3024], [6.24151, 46.30192], [6.24163, 46.30179], [6.24154, 46.30163], [6.24128, 46.30151], [6.24161, 46.30162], [6.24172, 46.30154], [6.24174, 46.30121], [6.24136, 46.30129], [6.24176, 46.30106], [6.24177, 46.30094], [6.24166, 46.30094], [6.24167, 46.30077], [6.24178, 46.30077], [6.24188, 46.30064], [6.2421, 46.29996], [6.24218, 46.2998], [6.2423, 46.2998], [6.24231, 46.29966], [6.2422, 46.29977], [6.24265, 46.29874], [6.24264, 46.29839], [6.24229, 46.29775], [6.2422, 46.29773], [6.24079, 46.2962], [6.24012, 46.29582], [6.24027, 46.29573], [6.24006, 46.29578], [6.24015, 46.29573], [6.24009, 46.29562], [6.23937, 46.29489], [6.23839, 46.29355], [6.23803, 46.29336], [6.23741, 46.29244], [6.23687, 46.29119], [6.23675, 46.29111], [6.23688, 46.29103], [6.23687, 46.29088], [6.23657, 46.2905], [6.23631, 46.29037], [6.2361, 46.2901], [6.23615, 46.29002], [6.2357, 46.28977], [6.23572, 46.28963], [6.23561, 46.2895], [6.23552, 46.28949], [6.23543, 46.28938], [6.23556, 46.28949], [6.23572, 46.2894], [6.23559, 46.2892], [6.23543, 46.28929], [6.23554, 46.28922], [6.23553, 46.28911], [6.23441, 46.28831], [6.2341, 46.28821], [6.23398, 46.28824], [6.23406, 46.28817], [6.23378, 46.28799], [6.23362, 46.28805], [6.23369, 46.28797], [6.23356, 46.28799], [6.23313, 46.28771], [6.23246, 46.28762], [6.23241, 46.28753], [6.23255, 46.28762], [6.23273, 46.28752], [6.23237, 46.28736], [6.23208, 46.28732], [6.23199, 46.28728], [6.23221, 46.28728], [6.23196, 46.28711], [6.23119, 46.28687], [6.23111, 46.28695], [6.23093, 46.28689], [6.2311, 46.28694], [6.23122, 46.28682], [6.2307, 46.28665], [6.23058, 46.28664], [6.23058, 46.2867], [6.23054, 46.28674], [6.23046, 46.28676], [6.23039, 46.28676], [6.23053, 46.28673], [6.23057, 46.28663], [6.23044, 46.28656], [6.23036, 46.28665], [6.23041, 46.28657], [6.22978, 46.28628], [6.22964, 46.28631], [6.22967, 46.28623], [6.22935, 46.28609], [6.22903, 46.28627], [6.22876, 46.28628], [6.22866, 46.2862], [6.22893, 46.28627], [6.2293, 46.28611], [6.22888, 46.28595], [6.22875, 46.28608], [6.22881, 46.28597], [6.22845, 46.28582], [6.22814, 46.28586], [6.22843, 46.28581], [6.22834, 46.2856], [6.22805, 46.28546], [6.22794, 46.28529], [6.22777, 46.28532], [6.22793, 46.28527], [6.2278, 46.28509], [6.22738, 46.28493], [6.22753, 46.28495], [6.22757, 46.28485], [6.22731, 46.28461], [6.22715, 46.28464], [6.22733, 46.28458], [6.22715, 46.28438], [6.22695, 46.28439], [6.227, 46.28435], [6.22673, 46.28405], [6.22689, 46.28406], [6.22686, 46.2839], [6.22658, 46.2837], [6.22651, 46.28366], [6.22642, 46.28367], [6.22637, 46.28364], [6.22649, 46.28365], [6.2266, 46.28355], [6.22645, 46.28347], [6.22637, 46.28356], [6.22645, 46.28346], [6.22633, 46.28335], [6.22625, 46.28338], [6.22622, 46.28335], [6.22633, 46.28333], [6.22625, 46.28317], [6.22605, 46.2832], [6.22619, 46.28312], [6.22611, 46.28305], [6.22594, 46.28307], [6.22584, 46.28299], [6.22594, 46.28307], [6.22608, 46.283], [6.22595, 46.28287], [6.22575, 46.28272], [6.22558, 46.28284], [6.22563, 46.28276], [6.22551, 46.28273], [6.22544, 46.28259], [6.22556, 46.28268], [6.22565, 46.28264], [6.22555, 46.28252], [6.22547, 46.28255], [6.22553, 46.28252], [6.22534, 46.28241], [6.22515, 46.28245], [6.22532, 46.28231], [6.22527, 46.28224], [6.22518, 46.28228], [6.22509, 46.28224], [6.22526, 46.28224], [6.22517, 46.28212], [6.22502, 46.28216], [6.22507, 46.28213], [6.225, 46.28204], [6.22508, 46.28213], [6.22517, 46.2821], [6.2249, 46.28172], [6.22474, 46.28163], [6.22464, 46.28167], [6.22476, 46.28161], [6.22472, 46.28153], [6.22433, 46.28168], [6.22422, 46.28167], [6.22412, 46.2816], [6.22411, 46.28151], [6.2242, 46.28143], [6.22414, 46.28158], [6.22428, 46.28166], [6.22471, 46.28147], [6.22454, 46.28127], [6.22428, 46.28139], [6.22453, 46.28125], [6.22444, 46.28123], [6.22436, 46.28113], [6.22427, 46.28113], [6.22438, 46.28113], [6.22449, 46.28124], [6.2246, 46.28119], [6.2238, 46.28048], [6.22371, 46.28047], [6.2235, 46.28014], [6.22302, 46.28], [6.22294, 46.27991], [6.22308, 46.28], [6.2231, 46.27982], [6.22289, 46.27961], [6.22272, 46.27953], [6.22258, 46.27957], [6.22273, 46.27951], [6.22235, 46.27932], [6.22261, 46.27933], [6.22251, 46.27922], [6.22241, 46.27926], [6.2225, 46.27921], [6.22219, 46.27893], [6.2221, 46.27896], [6.22204, 46.2789], [6.22217, 46.27891], [6.22198, 46.27875], [6.22172, 46.27854], [6.22123, 46.27838], [6.2212, 46.27821], [6.22127, 46.2782], [6.22121, 46.27806], [6.22128, 46.27803], [6.22113, 46.27787], [6.22118, 46.27785], [6.22098, 46.27742], [6.22057, 46.27726], [6.22044, 46.2771], [6.22059, 46.27725], [6.22093, 46.27717], [6.22076, 46.27701], [6.22057, 46.27705], [6.22075, 46.27699], [6.21997, 46.27565], [6.21982, 46.27556], [6.2196, 46.27561], [6.21949, 46.27556], [6.21948, 46.27545], [6.21957, 46.27559], [6.2199, 46.27552], [6.21981, 46.27538], [6.21966, 46.27542], [6.21981, 46.27537], [6.21957, 46.27501], [6.21931, 46.27506], [6.21919, 46.275], [6.21956, 46.275], [6.21943, 46.27486], [6.21948, 46.27485], [6.21918, 46.27491], [6.21903, 46.27479], [6.21921, 46.27489], [6.21946, 46.27483], [6.21931, 46.27462], [6.21915, 46.27468], [6.2193, 46.27462], [6.21916, 46.27442], [6.21894, 46.27445], [6.21881, 46.27438], [6.2188, 46.2743], [6.21891, 46.27443], [6.21917, 46.2744], [6.21904, 46.27424], [6.21896, 46.27428], [6.21903, 46.27424], [6.21892, 46.2741], [6.21873, 46.27415], [6.21889, 46.27407], [6.21869, 46.27384], [6.21856, 46.27389], [6.21844, 46.27387], [6.21868, 46.27382], [6.2186, 46.2737], [6.21842, 46.27355], [6.21817, 46.27367], [6.21799, 46.27353], [6.21817, 46.27364], [6.21836, 46.27356], [6.21837, 46.27347], [6.21805, 46.27321], [6.2178, 46.27331], [6.21765, 46.27319], [6.2178, 46.27329], [6.21804, 46.2732], [6.21769, 46.27289], [6.21751, 46.27294], [6.21763, 46.27287], [6.21744, 46.27268], [6.21706, 46.27256], [6.21737, 46.27257], [6.21724, 46.27248], [6.21728, 46.27243], [6.21719, 46.27245], [6.21661, 46.272], [6.21637, 46.2719], [6.21623, 46.27195], [6.21639, 46.27187], [6.21626, 46.27189], [6.21605, 46.27178], [6.21624, 46.27168], [6.21625, 46.27159], [6.21577, 46.27108], [6.21532, 46.27082], [6.21509, 46.27088], [6.21521, 46.27078], [6.21506, 46.2707], [6.21494, 46.27078], [6.21488, 46.27078], [6.21482, 46.27075], [6.21494, 46.27077], [6.21504, 46.2707], [6.21492, 46.27063], [6.21488, 46.27068], [6.21493, 46.27062], [6.21464, 46.27052], [6.21425, 46.27009], [6.21408, 46.27005], [6.21423, 46.27003], [6.21398, 46.26947], [6.21393, 46.26921], [6.21379, 46.26903], [6.2136, 46.26898], [6.21354, 46.26891], [6.21374, 46.26896], [6.21278, 46.26772], [6.21239, 46.26737], [6.21111, 46.26665], [6.21088, 46.26675], [6.21108, 46.26663], [6.21086, 46.26655], [6.21068, 46.26665], [6.21077, 46.26659], [6.21055, 46.26632], [6.21058, 46.26614], [6.21024, 46.2658], [6.21013, 46.26588], [6.2099, 46.26571], [6.20993, 46.26566], [6.2098, 46.26563], [6.2096, 46.26602], [6.2095, 46.26607], [6.20866, 46.26586], [6.20859, 46.26566], [6.20868, 46.26582], [6.20949, 46.26602], [6.20974, 46.26562], [6.20929, 46.2655], [6.20933, 46.26543], [6.20879, 46.26526], [6.20868, 46.2655], [6.20873, 46.2652], [6.20851, 46.26514], [6.20823, 46.26536], [6.20792, 46.26545], [6.20801, 46.26534], [6.20821, 46.26532], [6.20816, 46.2652], [6.20746, 46.26532], [6.20739, 46.26541], [6.20716, 46.26539], [6.20737, 46.26539], [6.20745, 46.26528], [6.20741, 46.26523], [6.20719, 46.26529], [6.20653, 46.26521], [6.20654, 46.2653], [6.20651, 46.26523], [6.20644, 46.2653], [6.20643, 46.26524], [6.20582, 46.26527], [6.20522, 46.26542], [6.20514, 46.26537], [6.20533, 46.26537], [6.20532, 46.26523], [6.20515, 46.26526], [6.20499, 46.26525], [6.2051, 46.26519], [6.2048, 46.26514], [6.20492, 46.26515], [6.2049, 46.26508], [6.20432, 46.26503], [6.20375, 46.2651], [6.2035, 46.26504], [6.20337, 46.26516], [6.20303, 46.26523], [6.20304, 46.26512], [6.20333, 46.26512], [6.20341, 46.26494], [6.2028, 46.2649], [6.2029, 46.26479], [6.20282, 46.26478], [6.20276, 46.26488], [6.20222, 46.26486], [6.202, 46.26473], [6.20159, 46.26474], [6.20154, 46.26481], [6.20157, 46.2647], [6.20151, 46.26465], [6.20128, 46.26467], [6.20113, 46.26458], [6.20075, 46.26462], [6.20068, 46.26476], [6.20053, 46.26471], [6.20057, 46.26464], [6.19997, 46.26446], [6.20003, 46.26423], [6.19957, 46.26409], [6.1995, 46.26415], [6.19943, 46.26415], [6.19903, 46.26402], [6.19943, 46.26414], [6.19959, 46.26404], [6.19954, 46.26396], [6.19907, 46.2638], [6.19898, 46.26388], [6.19883, 46.26383], [6.19854, 46.2641], [6.19835, 46.26402], [6.19853, 46.26407], [6.19882, 46.26373], [6.19807, 46.26326], [6.19781, 46.26301], [6.19676, 46.26158], [6.19663, 46.26114], [6.1963, 46.26098], [6.1962, 46.26078], [6.19626, 46.26061], [6.19631, 46.26068], [6.19622, 46.26079], [6.19631, 46.26093], [6.19663, 46.26088], [6.19654, 46.26049], [6.19637, 46.26057], [6.19654, 46.26048], [6.19572, 46.25918], [6.19536, 46.25897], [6.19498, 46.25891], [6.1948, 46.25864], [6.19491, 46.25849], [6.19483, 46.25864], [6.195, 46.25889], [6.19536, 46.25896], [6.19553, 46.25885], [6.19522, 46.25839], [6.19513, 46.25842], [6.19452, 46.25786], [6.19484, 46.25777], [6.19469, 46.25742], [6.19476, 46.25633], [6.19447, 46.25634], [6.19461, 46.25615], [6.19458, 46.25568], [6.19439, 46.2555], [6.19371, 46.25384], [6.19337, 46.2534], [6.19328, 46.253], [6.19316, 46.25294], [6.19267, 46.25298], [6.19266, 46.25292], [6.19315, 46.25293], [6.19316, 46.25257], [6.1936, 46.25165], [6.19373, 46.25144], [6.19398, 46.25145], [6.19404, 46.25136], [6.19401, 46.25113], [6.19386, 46.2511], [6.19402, 46.25097], [6.19384, 46.25021], [6.19302, 46.24863], [6.19283, 46.24802], [6.19258, 46.24774], [6.19242, 46.24775], [6.19234, 46.24764], [6.19265, 46.24758], [6.19267, 46.24742], [6.19226, 46.24741], [6.19219, 46.24729], [6.19256, 46.24722], [6.1925, 46.24711], [6.19216, 46.24724], [6.1921, 46.24713], [6.19257, 46.24709], [6.19254, 46.24703], [6.19239, 46.24702], [6.19239, 46.24679], [6.1923, 46.24673], [6.1919, 46.24677], [6.19174, 46.24648], [6.19217, 46.24644], [6.19213, 46.24622], [6.19181, 46.24623], [6.19169, 46.2461], [6.19163, 46.24532], [6.19146, 46.24452], [6.19193, 46.24444], [6.19197, 46.24416], [6.19189, 46.24407], [6.192, 46.24392], [6.19191, 46.2439], [6.19205, 46.24365], [6.19198, 46.24359], [6.19203, 46.24337], [6.19223, 46.2433], [6.19225, 46.2432], [6.19242, 46.2432], [6.19255, 46.24309], [6.19264, 46.24314], [6.1927, 46.24346], [6.19233, 46.24386], [6.19269, 46.24391], [6.19264, 46.24407], [6.19286, 46.24362], [6.19301, 46.2435], [6.19327, 46.24347], [6.19317, 46.24337], [6.19274, 46.2434], [6.19273, 46.243], [6.19286, 46.2431], [6.19312, 46.24299], [6.193, 46.24289], [6.19328, 46.24288], [6.19348, 46.2431], [6.19358, 46.2431], [6.19391, 46.24288], [6.19396, 46.24262], [6.19389, 46.24218], [6.194, 46.24213], [6.19389, 46.24215], [6.19388, 46.24187], [6.19364, 46.24188], [6.19356, 46.24163], [6.19362, 46.24177], [6.19378, 46.24176], [6.19382, 46.24156], [6.19368, 46.24143], [6.19351, 46.24144], [6.19354, 46.24158], [6.19341, 46.24115], [6.1933, 46.24107], [6.19336, 46.24103], [6.19335, 46.24056], [6.19358, 46.23983], [6.19348, 46.23928], [6.19339, 46.2392], [6.19334, 46.23848], [6.1932, 46.23812], [6.19295, 46.23782], [6.19237, 46.23761], [6.19223, 46.23757], [6.19208, 46.23767], [6.19223, 46.23783], [6.19209, 46.23775], [6.19206, 46.23767], [6.19245, 46.23739], [6.19244, 46.23717], [6.19254, 46.23713], [6.19254, 46.23698], [6.19238, 46.23654], [6.19167, 46.23562], [6.19158, 46.23555], [6.19053, 46.23585], [6.1905, 46.23581], [6.19158, 46.23553], [6.19137, 46.23515], [6.19138, 46.23464], [6.1912, 46.23413], [6.19064, 46.23313], [6.19036, 46.23277], [6.18959, 46.23213], [6.18899, 46.23145], [6.18887, 46.23149], [6.18872, 46.23142], [6.18853, 46.23109], [6.18625, 46.22847], [6.18425, 46.22687], [6.18307, 46.22539], [6.18267, 46.22534], [6.18214, 46.22506], [6.1816, 46.22446], [6.18169, 46.22442], [6.18211, 46.22497], [6.18262, 46.22479], [6.18092, 46.22266], [6.18077, 46.22244], [6.18082, 46.22242], [6.17913, 46.22017], [6.17902, 46.22025], [6.17875, 46.22012], [6.17867, 46.21992], [6.17868, 46.21986], [6.17876, 46.21991], [6.1787, 46.2198], [6.17877, 46.21978], [6.17556, 46.21528], [6.17522, 46.21511], [6.17449, 46.21508], [6.17454, 46.215], [6.17478, 46.21504], [6.1748, 46.21481], [6.17351, 46.21467], [6.1736, 46.21456], [6.17333, 46.2145], [6.17303, 46.21444], [6.1727, 46.21467], [6.17276, 46.21456], [6.17256, 46.21451], [6.17153, 46.21444], [6.17061, 46.2147], [6.17072, 46.21483], [6.17047, 46.21468], [6.16891, 46.21565], [6.16866, 46.21559], [6.16869, 46.21547], [6.16891, 46.21549], [6.16917, 46.21534], [6.16907, 46.21526], [6.16921, 46.21531], [6.17013, 46.21476], [6.17004, 46.21469], [6.17089, 46.21378], [6.17119, 46.21389], [6.17194, 46.21344], [6.17234, 46.2131], [6.173, 46.21227], [6.17085, 46.21127], [6.17062, 46.21151], [6.16989, 46.21118], [6.16988, 46.21105], [6.16653, 46.20957], [6.16646, 46.20962], [6.16776, 46.21097], [6.16763, 46.21115], [6.16782, 46.21127], [6.16706, 46.21208], [6.16694, 46.21203], [6.16712, 46.21185], [6.16665, 46.21136], [6.16638, 46.21139], [6.16664, 46.21132], [6.16648, 46.21106], [6.1661, 46.21074], [6.16585, 46.21063], [6.16566, 46.21065], [6.1659, 46.21058], [6.16584, 46.21041], [6.16537, 46.21], [6.16493, 46.20991], [6.16506, 46.20986], [6.16492, 46.20947], [6.16461, 46.20923], [6.16419, 46.20917], [6.16449, 46.2091], [6.16448, 46.20904], [6.16435, 46.20887], [6.16406, 46.20875], [6.16331, 46.2087], [6.16275, 46.20884], [6.16252, 46.20919], [6.16255, 46.20931], [6.16241, 46.20938], [6.16159, 46.20911], [6.15905, 46.209], [6.15903, 46.2088], [6.1591, 46.2089], [6.16154, 46.20905], [6.16224, 46.20923], [6.16236, 46.20916], [6.16262, 46.20858], [6.16261, 46.20838], [6.16123, 46.20772], [6.16096, 46.20797], [6.16039, 46.20804], [6.15939, 46.20805], [6.16093, 46.20795], [6.16121, 46.20771], [6.15751, 46.20594], [6.15717, 46.20628], [6.15749, 46.20593], [6.15404, 46.20429], [6.15389, 46.20433], [6.15376, 46.20426], [6.15055, 46.20507], [6.14974, 46.20505], [6.14805, 46.2068], [6.14804, 46.207], [6.14832, 46.20724], [6.14844, 46.20723], [6.14859, 46.20734], [6.14867, 46.20744], [6.14864, 46.20754], [6.14974, 46.20854], [6.15008, 46.20839], [6.14993, 46.20824], [6.15034, 46.20861], [6.15058, 46.20855], [6.1509, 46.20861], [6.15112, 46.20882], [6.15107, 46.20884], [6.15113, 46.20905], [6.15098, 46.20919], [6.15303, 46.21105], [6.15513, 46.20994], [6.15696, 46.21], [6.156, 46.21001], [6.1551, 46.2102], [6.15462, 46.21035], [6.15468, 46.21044], [6.15459, 46.21036], [6.15413, 46.21055], [6.15403, 46.2106], [6.15408, 46.21069], [6.15398, 46.2106], [6.15377, 46.21069], [6.15311, 46.21109], [6.1531, 46.21136], [6.15321, 46.2116], [6.15286, 46.2127], [6.15378, 46.21284], [6.15433, 46.21274], [6.15442, 46.21264], [6.15455, 46.21204], [6.15447, 46.21184], [6.15459, 46.21202], [6.15447, 46.21263], [6.15431, 46.21279], [6.15389, 46.21288], [6.15285, 46.21274], [6.15254, 46.21389], [6.15268, 46.21386], [6.15262, 46.21405], [6.15251, 46.21399], [6.15157, 46.2175], [6.15189, 46.21803], [6.15206, 46.21804], [6.15218, 46.2179], [6.15212, 46.21807], [6.15245, 46.21877], [6.15242, 46.21935], [6.15259, 46.21925], [6.15244, 46.21936], [6.15306, 46.21989], [6.15317, 46.21982], [6.15307, 46.21974], [6.15305, 46.21969], [6.15312, 46.21956], [6.15335, 46.21944], [6.15336, 46.21946], [6.15316, 46.21954], [6.15307, 46.21968], [6.15318, 46.21982], [6.15318, 46.21995], [6.15335, 46.22002], [6.15326, 46.22013], [6.15361, 46.22084], [6.15364, 46.2212], [6.15347, 46.22154], [6.15306, 46.22193], [6.15269, 46.22212], [6.15215, 46.22263], [6.15221, 46.22268], [6.152, 46.22258], [6.15174, 46.22283], [6.15208, 46.22293], [6.15222, 46.22279], [6.15247, 46.22276], [6.15223, 46.2228], [6.15209, 46.22294], [6.15194, 46.22295], [6.15129, 46.22343], [6.15118, 46.22404], [6.15125, 46.2242], [6.15101, 46.22425], [6.15112, 46.22432], [6.15095, 46.22431], [6.14992, 46.22533], [6.14998, 46.2254], [6.14991, 46.22535], [6.14969, 46.22556], [6.1499, 46.22564], [6.15008, 46.22548], [6.15014, 46.22547], [6.14993, 46.22564], [6.14973, 46.22567], [6.14935, 46.22602], [6.14903, 46.22653], [6.14905, 46.227], [6.14914, 46.22719], [6.14934, 46.22731], [6.14925, 46.22759], [6.1493, 46.22766], [6.14956, 46.22764], [6.14946, 46.22747], [6.14952, 46.22734], [6.14948, 46.22748], [6.14957, 46.22764], [6.14966, 46.22766], [6.14958, 46.22769], [6.14952, 46.22799], [6.14991, 46.22786], [6.14989, 46.22771], [6.14996, 46.22778], [6.14991, 46.22788], [6.14976, 46.22792], [6.14978, 46.22802], [6.14971, 46.22803], [6.14979, 46.22844], [6.14961, 46.22845], [6.14975, 46.22934], [6.14981, 46.22942], [6.1499, 46.22941], [6.14996, 46.22971], [6.14988, 46.22978], [6.15024, 46.23045], [6.15028, 46.23102], [6.1504, 46.23101], [6.1504, 46.23104], [6.15006, 46.23104], [6.15008, 46.23151], [6.15063, 46.23148], [6.15062, 46.23115], [6.15073, 46.231], [6.15065, 46.23116], [6.15066, 46.23148], [6.15062, 46.23166], [6.15002, 46.23218], [6.14998, 46.23244], [6.15003, 46.23241], [6.15006, 46.23251], [6.15077, 46.23311], [6.15091, 46.23332], [6.15089, 46.23349], [6.151, 46.23348], [6.15087, 46.2335], [6.15086, 46.23368], [6.15107, 46.23366], [6.15113, 46.23343], [6.15116, 46.23343], [6.15109, 46.23367], [6.15091, 46.23371], [6.15083, 46.23382], [6.15075, 46.23426], [6.15049, 46.23438], [6.15065, 46.23448], [6.15084, 46.2343], [6.15104, 46.2343], [6.15068, 46.23448], [6.15039, 46.23515], [6.15055, 46.23521], [6.15063, 46.23507], [6.15067, 46.23504], [6.1507, 46.23505], [6.15057, 46.23522], [6.15037, 46.2352], [6.15024, 46.23558], [6.15035, 46.23561], [6.15077, 46.23542], [6.1509, 46.2353], [6.15092, 46.23531], [6.15078, 46.23542], [6.15035, 46.23562], [6.15029, 46.23563], [6.1502, 46.23577], [6.15046, 46.23647], [6.15062, 46.23648], [6.15073, 46.23636], [6.15061, 46.23666], [6.15088, 46.23762], [6.1513, 46.23756], [6.1513, 46.23746], [6.15111, 46.23738], [6.15128, 46.23742], [6.15134, 46.23749], [6.15132, 46.23756], [6.15126, 46.2376], [6.15089, 46.23764], [6.15094, 46.23797], [6.15128, 46.23792], [6.15131, 46.23783], [6.15122, 46.23774], [6.15134, 46.23784], [6.15131, 46.23791], [6.15124, 46.23795], [6.15095, 46.23798], [6.15105, 46.23895], [6.15116, 46.23914], [6.15104, 46.23918], [6.15106, 46.23929], [6.15135, 46.23922], [6.15141, 46.23908], [6.15144, 46.23908], [6.1514, 46.23921], [6.1512, 46.23929], [6.15127, 46.23937], [6.15117, 46.23947], [6.15134, 46.23947], [6.15135, 46.2394], [6.15141, 46.23939], [6.15134, 46.23973], [6.15157, 46.24023], [6.15199, 46.24014], [6.15203, 46.2403], [6.15197, 46.24043], [6.15183, 46.2404], [6.15172, 46.24026], [6.15158, 46.24024], [6.15164, 46.24034], [6.15172, 46.24028], [6.15184, 46.24049], [6.15223, 46.24037], [6.15217, 46.24022], [6.15215, 46.24009], [6.15217, 46.24009], [6.15226, 46.24038], [6.15191, 46.24062], [6.15218, 46.24106], [6.15216, 46.24118], [6.15246, 46.24114], [6.15216, 46.24119], [6.15223, 46.2414], [6.15248, 46.24132], [6.1525, 46.24118], [6.15256, 46.24115], [6.15249, 46.24132], [6.15221, 46.24143], [6.15221, 46.24165], [6.15239, 46.24191], [6.1528, 46.24223], [6.15303, 46.24269], [6.15314, 46.2428], [6.15326, 46.24277], [6.15313, 46.24281], [6.15316, 46.24296], [6.15287, 46.24376], [6.15274, 46.24393], [6.15266, 46.24441], [6.15281, 46.24442], [6.15278, 46.2446], [6.1529, 46.24467], [6.15313, 46.24468], [6.15343, 46.24447], [6.15319, 46.24477], [6.15329, 46.24506], [6.15329, 46.24534], [6.15391, 46.24566], [6.15395, 46.24585], [6.15384, 46.2462], [6.15347, 46.24667], [6.15286, 46.24711], [6.15204, 46.24754], [6.15161, 46.24798], [6.15166, 46.24826], [6.15188, 46.24824], [6.15188, 46.24811], [6.15194, 46.24844], [6.15191, 46.24857], [6.15164, 46.24881], [6.15169, 46.2488], [6.1516, 46.24911], [6.15152, 46.25026], [6.15195, 46.25023], [6.15207, 46.2501], [6.1521, 46.25011], [6.15196, 46.25024], [6.15158, 46.25026], [6.15161, 46.25079], [6.15193, 46.25072], [6.15162, 46.25081], [6.15173, 46.25122], [6.15166, 46.25125], [6.15182, 46.25155], [6.15192, 46.25152], [6.15183, 46.25142], [6.15193, 46.25151], [6.152, 46.25146], [6.15194, 46.25139], [6.15201, 46.25142], [6.15199, 46.2515], [6.15182, 46.25156], [6.15197, 46.25176], [6.15212, 46.25171], [6.15242, 46.25211], [6.15255, 46.25206], [6.15248, 46.2521], [6.15253, 46.25216], [6.15264, 46.25211], [6.15261, 46.25202], [6.15263, 46.25202], [6.15265, 46.25211], [6.15254, 46.25217], [6.15255, 46.25235], [6.15267, 46.25248], [6.15364, 46.2532], [6.15406, 46.25293], [6.15365, 46.25321], [6.15406, 46.25351], [6.15432, 46.25331], [6.15432, 46.25308], [6.15462, 46.25294], [6.15453, 46.25303], [6.15454, 46.25328], [6.15471, 46.25333], [6.1546, 46.25342], [6.15465, 46.25364], [6.1549, 46.25375], [6.15481, 46.25388], [6.15489, 46.25398], [6.15548, 46.2543], [6.15578, 46.25487], [6.15601, 46.25514], [6.15657, 46.25488], [6.15602, 46.25515], [6.15617, 46.25531], [6.15628, 46.25528], [6.15619, 46.25534], [6.15627, 46.25543], [6.15641, 46.25536], [6.15644, 46.25523], [6.15645, 46.25535], [6.15634, 46.25558], [6.15647, 46.25594], [6.15697, 46.25697], [6.15709, 46.25692], [6.15699, 46.25682], [6.15706, 46.2568], [6.15712, 46.25692], [6.15698, 46.25698], [6.15749, 46.25799], [6.1576, 46.25792], [6.15756, 46.25785], [6.15761, 46.25792], [6.15761, 46.25808], [6.15754, 46.25809], [6.15762, 46.25825], [6.15775, 46.25813], [6.15785, 46.25809], [6.1577, 46.25824], [6.1578, 46.25839], [6.15815, 46.25829], [6.15805, 46.25811], [6.15816, 46.25827], [6.15814, 46.25831], [6.15786, 46.25839], [6.15781, 46.2586], [6.15808, 46.25909], [6.1588, 46.25987], [6.1601, 46.26051], [6.16109, 46.2614], [6.16166, 46.26216], [6.1618, 46.2622], [6.16169, 46.26228], [6.16171, 46.2624], [6.16183, 46.26265], [6.16212, 46.26294], [6.1637, 46.26351], [6.16438, 46.26363], [6.16519, 46.2635], [6.16536, 46.26357], [6.16547, 46.26346], [6.16588, 46.26339], [6.16592, 46.26344], [6.16566, 46.26364], [6.16638, 46.26389], [6.16647, 46.26377], [6.16631, 46.2633], [6.16592, 46.26338], [6.16626, 46.26317], [6.16641, 46.26297], [6.16634, 46.26269], [6.1662, 46.26255], [6.16604, 46.26244], [6.16592, 46.26256], [6.16604, 46.26242], [6.16629, 46.26231], [6.1661, 46.26242], [6.16637, 46.26266], [6.16661, 46.26307], [6.1665, 46.26351], [6.16683, 46.26407], [6.16685, 46.26426], [6.16695, 46.26427], [6.16689, 46.26435], [6.1672, 46.26535], [6.16753, 46.2653], [6.16761, 46.2652], [6.16754, 46.26531], [6.16721, 46.26536], [6.16728, 46.26558], [6.16734, 46.26557], [6.16731, 46.26567], [6.16753, 46.26562], [6.16769, 46.26552], [6.16769, 46.2654], [6.16772, 46.26544], [6.16769, 46.26555], [6.16754, 46.26563], [6.16735, 46.26567], [6.16733, 46.26575], [6.16744, 46.2661], [6.16768, 46.26603], [6.16776, 46.26589], [6.16781, 46.26589], [6.16769, 46.26604], [6.16744, 46.26611], [6.16743, 46.26622], [6.1675, 46.26645], [6.16759, 46.26644], [6.16761, 46.26645], [6.1675, 46.26646], [6.16752, 46.26652], [6.16774, 46.26644], [6.16753, 46.26653], [6.16764, 46.26688], [6.16782, 46.26683], [6.16764, 46.26689], [6.16791, 46.26771], [6.16796, 46.26776], [6.16822, 46.26767], [6.16801, 46.26777], [6.16806, 46.26822], [6.1685, 46.26815], [6.16808, 46.26823], [6.16814, 46.26845], [6.16843, 46.2684], [6.16819, 46.26845], [6.16826, 46.26867], [6.1685, 46.26876], [6.16841, 46.26892], [6.16844, 46.26911], [6.16851, 46.2691], [6.16847, 46.26915], [6.16854, 46.26916], [6.16873, 46.26958], [6.16904, 46.26955], [6.16896, 46.26961], [6.169, 46.26983], [6.16908, 46.26991], [6.16921, 46.26987], [6.16912, 46.26992], [6.16915, 46.27], [6.17004, 46.27138], [6.17031, 46.27129], [6.1705, 46.27127], [6.17005, 46.2714], [6.17012, 46.2715], [6.16972, 46.27169], [6.16977, 46.27183], [6.16968, 46.27188], [6.16989, 46.27201], [6.17008, 46.27196], [6.17038, 46.27234], [6.17039, 46.2735], [6.17098, 46.2734], [6.17088, 46.27304], [6.17143, 46.27283], [6.17129, 46.2729], [6.171, 46.27341], [6.17111, 46.27376], [6.17141, 46.27416], [6.17123, 46.27435], [6.17098, 46.27441], [6.17084, 46.27501], [6.17091, 46.27509], [6.17074, 46.27524], [6.1705, 46.27571], [6.17063, 46.27574], [6.17042, 46.27618], [6.17054, 46.27621], [6.17043, 46.27642], [6.17087, 46.27644], [6.17123, 46.27618], [6.17131, 46.27622], [6.1709, 46.27648], [6.17026, 46.27649], [6.16965, 46.27768], [6.16949, 46.27763], [6.16928, 46.27772], [6.169, 46.27813], [6.16909, 46.27816], [6.16916, 46.27807], [6.1691, 46.27816], [6.16907, 46.27817], [6.16897, 46.27813], [6.16869, 46.27846], [6.16891, 46.27852], [6.16865, 46.2785], [6.16859, 46.27856], [6.16871, 46.2786], [6.16821, 46.2793], [6.16807, 46.27948], [6.16792, 46.27948], [6.16782, 46.27961], [6.16787, 46.27968], [6.16807, 46.27967], [6.168, 46.27972], [6.16776, 46.27969], [6.16796, 46.27982], [6.16791, 46.27989], [6.16783, 46.27985], [6.16782, 46.27997], [6.16798, 46.27998], [6.16802, 46.27987], [6.16803, 46.27998], [6.16795, 46.28002], [6.16763, 46.27994], [6.16752, 46.28008], [6.16725, 46.28087], [6.16754, 46.28088], [6.16763, 46.28072], [6.16765, 46.2808], [6.16752, 46.28091], [6.16727, 46.28089], [6.16718, 46.28117], [6.16726, 46.28118], [6.1673, 46.28108], [6.16727, 46.28119], [6.16716, 46.28129], [6.16707, 46.2816], [6.16724, 46.28222], [6.16748, 46.28219], [6.16759, 46.28205], [6.1675, 46.28221], [6.16727, 46.28224], [6.16734, 46.28241], [6.16748, 46.28242], [6.1674, 46.28246], [6.16747, 46.28261], [6.16771, 46.28261], [6.16781, 46.28245], [6.16772, 46.28262], [6.16747, 46.28262], [6.1677, 46.28269], [6.16761, 46.28282], [6.16767, 46.28305], [6.16813, 46.28318], [6.16817, 46.28292], [6.16814, 46.28319], [6.16847, 46.28375], [6.16855, 46.28393], [6.16846, 46.28395], [6.16849, 46.28401], [6.16857, 46.28399], [6.16868, 46.28426], [6.16847, 46.28446], [6.16849, 46.28455], [6.16868, 46.28471], [6.16881, 46.28463], [6.16874, 46.28444], [6.16881, 46.28446], [6.16905, 46.28577], [6.16915, 46.28577], [6.16911, 46.28568], [6.16921, 46.28562], [6.16926, 46.28561], [6.16936, 46.28563], [6.16922, 46.28566], [6.16918, 46.28587], [6.16929, 46.28644], [6.1694, 46.28658], [6.16947, 46.28652], [6.16948, 46.28658], [6.16969, 46.2866], [6.16965, 46.28649], [6.16966, 46.28643], [6.16975, 46.28667], [6.17162, 46.28669], [6.17184, 46.28661], [6.17197, 46.28664], [6.17206, 46.28672], [6.17205, 46.28684], [6.17194, 46.28692], [6.17191, 46.28764], [6.17191, 46.28691], [6.17204, 46.28678], [6.17195, 46.28666], [6.17178, 46.28664], [6.17164, 46.28672], [6.1698, 46.2867], [6.16974, 46.28717], [6.16984, 46.28803], [6.17017, 46.28881], [6.17114, 46.28882], [6.17191, 46.28892], [6.172, 46.28881], [6.17187, 46.28867], [6.17187, 46.28796], [6.17192, 46.28801], [6.17227, 46.28792], [6.17239, 46.28779], [6.17233, 46.28793], [6.17192, 46.28809], [6.17191, 46.28866], [6.17203, 46.28877], [6.172, 46.28889], [6.17143, 46.28913], [6.1712, 46.28908], [6.17049, 46.29001], [6.17006, 46.29096], [6.16987, 46.29185], [6.16996, 46.29187], [6.16986, 46.2919], [6.16984, 46.29199], [6.17016, 46.29203], [6.16989, 46.29202], [6.16979, 46.29213], [6.16986, 46.29245], [6.17021, 46.29243], [6.1703, 46.29233], [6.17024, 46.29221], [6.17031, 46.29229], [6.1703, 46.29236], [6.17024, 46.29243], [6.17009, 46.29246], [6.16994, 46.29308], [6.17009, 46.29351], [6.17002, 46.2936], [6.1704, 46.29351], [6.1701, 46.29359], [6.17004, 46.29378], [6.17027, 46.29474], [6.17019, 46.29477], [6.17028, 46.29496], [6.17037, 46.29487], [6.17047, 46.29485], [6.17037, 46.29492], [6.17075, 46.29562], [6.1706, 46.2957], [6.17063, 46.29589], [6.17092, 46.29592], [6.17149, 46.2968], [6.17185, 46.29701], [6.17193, 46.2969], [6.17185, 46.29702], [6.17275, 46.29755], [6.17402, 46.29849], [6.1743, 46.29854], [6.17465, 46.29871], [6.17495, 46.29873], [6.1757, 46.29854], [6.17582, 46.29863], [6.17562, 46.29883], [6.17575, 46.29892], [6.17617, 46.29888], [6.17577, 46.29846], [6.17532, 46.29814], [6.1746, 46.29818], [6.17443, 46.29833], [6.17424, 46.29827], [6.17391, 46.29832], [6.17382, 46.29823], [6.17406, 46.29805], [6.17504, 46.29802], [6.17546, 46.29814], [6.17684, 46.29924], [6.17715, 46.2994], [6.17729, 46.29965], [6.17718, 46.29985], [6.17731, 46.29991], [6.17767, 46.29982], [6.17781, 46.30007], [6.17815, 46.30037], [6.17794, 46.3005], [6.17809, 46.30058], [6.17827, 46.3005], [6.1788, 46.30101], [6.1792, 46.30166], [6.17931, 46.30163], [6.17936, 46.30208], [6.17969, 46.30259], [6.1804, 46.30313], [6.18068, 46.30311], [6.18059, 46.30325], [6.18086, 46.30329], [6.18077, 46.30347], [6.18125, 46.30399], [6.18161, 46.30384], [6.18176, 46.30456], [6.18158, 46.30456], [6.18143, 46.30465], [6.18141, 46.30496], [6.18151, 46.30496], [6.18167, 46.30516], [6.1819, 46.30502], [6.18233, 46.30616], [6.18223, 46.30636], [6.18319, 46.3071], [6.18395, 46.30754], [6.18416, 46.30782], [6.18456, 46.3081], [6.18647, 46.31063], [6.18616, 46.31079], [6.18657, 46.3107], [6.18738, 46.31163], [6.1873, 46.31167], [6.18752, 46.31165], [6.18792, 46.31206], [6.18786, 46.31216], [6.18827, 46.31256], [6.18866, 46.31271], [6.18883, 46.31304], [6.19039, 46.31374], [6.19145, 46.3146], [6.19167, 46.31461], [6.19194, 46.31481], [6.19207, 46.31469], [6.19227, 46.31481], [6.19243, 46.31469], [6.19294, 46.31499], [6.19294, 46.31509], [6.19353, 46.31539], [6.1935, 46.31549], [6.19401, 46.31582], [6.19406, 46.31578], [6.19448, 46.3164], [6.19442, 46.31662], [6.19461, 46.31677], [6.19405, 46.31707], [6.19414, 46.31713], [6.1945, 46.31696], [6.19461, 46.31698], [6.19482, 46.31729], [6.1956, 46.31807], [6.1955, 46.31814], [6.19574, 46.31843], [6.19597, 46.3186], [6.19619, 46.31855], [6.19629, 46.31865], [6.19598, 46.31866], [6.19692, 46.3195], [6.19755, 46.31927], [6.19759, 46.31944], [6.19749, 46.31963], [6.19731, 46.31974], [6.19734, 46.32016], [6.1987, 46.32224], [6.19928, 46.3235], [6.19929, 46.32438], [6.19941, 46.32472], [6.1995, 46.32489], [6.20018, 46.32544], [6.20041, 46.32609], [6.20068, 46.32602], [6.20055, 46.32635], [6.20058, 46.32659], [6.2009, 46.32706], [6.20109, 46.32713], [6.20098, 46.32718], [6.20163, 46.32788], [6.20185, 46.32849], [6.2019, 46.32903], [6.20214, 46.32935], [6.20231, 46.32941], [6.20238, 46.32955], [6.2026, 46.32958], [6.20283, 46.32987], [6.20272, 46.33032], [6.20296, 46.33084], [6.20314, 46.33094], [6.20295, 46.33101], [6.20314, 46.33104], [6.20324, 46.33139], [6.20314, 46.33175], [6.20327, 46.33177], [6.20329, 46.33188], [6.20294, 46.3322], [6.20269, 46.33295], [6.20265, 46.33348], [6.2029, 46.33355], [6.20322, 46.3344], [6.20292, 46.3345], [6.20285, 46.33462], [6.20298, 46.335], [6.20361, 46.33578], [6.20347, 46.33584], [6.20339, 46.336], [6.20363, 46.33581], [6.2038, 46.33603], [6.20376, 46.33626], [6.2041, 46.33645], [6.2047, 46.33699], [6.20507, 46.33714], [6.20525, 46.33732], [6.20532, 46.33729], [6.20677, 46.33878], [6.20698, 46.33887], [6.20727, 46.33925], [6.20746, 46.33992], [6.20775, 46.33993], [6.20742, 46.33995], [6.20732, 46.34008], [6.20733, 46.34024], [6.20772, 46.34025], [6.20792, 46.34012], [6.20793, 46.33997], [6.20799, 46.33998], [6.20794, 46.34011], [6.20774, 46.34025], [6.20733, 46.34025], [6.20728, 46.34032], [6.20725, 46.34041], [6.20754, 46.34036], [6.20725, 46.34042], [6.20728, 46.34055], [6.20711, 46.34075], [6.20712, 46.34097], [6.20729, 46.34102], [6.20711, 46.34098], [6.20697, 46.34112], [6.20723, 46.34115], [6.20749, 46.34099], [6.20756, 46.34123], [6.20752, 46.34137], [6.20757, 46.34136], [6.20734, 46.34151], [6.20691, 46.34156], [6.20677, 46.34211], [6.2068, 46.34225], [6.20688, 46.34223], [6.20702, 46.34273], [6.20751, 46.34306], [6.20762, 46.34309], [6.20811, 46.34289], [6.20832, 46.34271], [6.20819, 46.34288], [6.20751, 46.34317], [6.20744, 46.34335], [6.20751, 46.34366], [6.20737, 46.34388], [6.20743, 46.34434], [6.20729, 46.34491], [6.20735, 46.34517], [6.20765, 46.34534], [6.20743, 46.34542], [6.20741, 46.34553], [6.20752, 46.3455], [6.20739, 46.34555], [6.20718, 46.34613], [6.20713, 46.34672], [6.20721, 46.34744], [6.20739, 46.3475], [6.20726, 46.34751], [6.2074, 46.34774], [6.20751, 46.34774], [6.20759, 46.34761], [6.20749, 46.34779], [6.20771, 46.34797], [6.20822, 46.34825], [6.20846, 46.34832], [6.20863, 46.34826], [6.20872, 46.34893], [6.20902, 46.34924], [6.21044, 46.35017], [6.21059, 46.35015], [6.21083, 46.35078], [6.21073, 46.35084], [6.21084, 46.35097], [6.21096, 46.35097], [6.21115, 46.35112], [6.21136, 46.35088], [6.21124, 46.35116], [6.21151, 46.35143], [6.21176, 46.35189], [6.21197, 46.3519], [6.2122, 46.35178], [6.21214, 46.35187], [6.21185, 46.35195], [6.2121, 46.35229], [6.21235, 46.35209], [6.21229, 46.35223], [6.21211, 46.3523], [6.21214, 46.3526], [6.21231, 46.35287], [6.21264, 46.35305], [6.21281, 46.35285], [6.21265, 46.35316], [6.21274, 46.3532], [6.2131, 46.35388], [6.21331, 46.35484], [6.21345, 46.35507], [6.21425, 46.35551], [6.2154, 46.3558], [6.21573, 46.356], [6.21587, 46.35697], [6.21598, 46.35729], [6.21613, 46.3573], [6.21615, 46.35745], [6.21607, 46.35746], [6.21627, 46.35836], [6.2165, 46.3589], [6.21676, 46.35887], [6.21693, 46.35903], [6.21718, 46.35891], [6.21789, 46.35935], [6.21759, 46.35959], [6.21961, 46.36042], [6.21961, 46.36103], [6.21951, 46.36099], [6.21961, 46.36105], [6.21961, 46.36145], [6.2197, 46.36185], [6.22007, 46.36251], [6.22057, 46.36308], [6.22106, 46.36337], [6.22117, 46.36352], [6.22161, 46.36362], [6.2217, 46.36356], [6.22215, 46.36428], [6.22264, 46.36446], [6.22343, 46.36497], [6.22478, 46.36525], [6.22535, 46.36551], [6.22546, 46.36543], [6.22569, 46.36547], [6.22569, 46.36569], [6.22679, 46.36657], [6.22708, 46.3667], [6.22747, 46.36724], [6.22816, 46.36772], [6.22863, 46.36784], [6.22962, 46.36855], [6.22984, 46.36861], [6.23043, 46.36914], [6.23037, 46.36921], [6.23059, 46.36946], [6.23081, 46.36955], [6.23188, 46.3708], [6.23242, 46.3711], [6.23244, 46.3712], [6.23256, 46.37117], [6.23256, 46.37126], [6.23288, 46.37157], [6.23328, 46.37151], [6.23329, 46.37165], [6.23317, 46.37175], [6.2332, 46.3719], [6.23374, 46.37242], [6.23418, 46.37246], [6.23407, 46.37277], [6.23419, 46.37324], [6.23443, 46.37338], [6.23465, 46.37369], [6.23455, 46.37452], [6.2347, 46.37504], [6.23458, 46.37507], [6.23459, 46.37527], [6.23492, 46.37569], [6.23487, 46.37576], [6.23506, 46.3761], [6.23543, 46.37611], [6.23535, 46.37616], [6.23578, 46.37669], [6.23591, 46.37665], [6.23609, 46.37694], [6.23722, 46.37719], [6.23751, 46.37713], [6.2383, 46.37773], [6.23824, 46.37779], [6.23829, 46.37783], [6.23841, 46.37769], [6.23849, 46.37807], [6.23882, 46.37847], [6.23893, 46.37848], [6.23887, 46.37851], [6.23977, 46.37916], [6.23998, 46.37927], [6.24011, 46.3792], [6.24032, 46.37955], [6.24056, 46.3796], [6.24075, 46.37977], [6.24081, 46.37992], [6.24132, 46.3801], [6.24164, 46.37996], [6.24142, 46.37975], [6.24139, 46.37946], [6.24119, 46.37913], [6.24137, 46.37883], [6.24132, 46.37914], [6.24146, 46.37939], [6.24152, 46.37973], [6.24181, 46.38002], [6.2419, 46.38022], [6.24191, 46.38036], [6.24183, 46.38042], [6.24394, 46.38273], [6.24457, 46.38319], [6.24517, 46.38344], [6.24589, 46.38359], [6.24664, 46.38267], [6.24642, 46.38296], [6.24656, 46.38292], [6.24669, 46.38352], [6.24658, 46.3836], [6.24666, 46.38395], [6.24678, 46.38407], [6.2458, 46.38456], [6.24584, 46.3846], [6.24686, 46.38414], [6.24664, 46.38445], [6.24672, 46.38453], [6.24672, 46.38479], [6.24658, 46.38531], [6.24679, 46.38595], [6.24688, 46.38593], [6.24702, 46.38622], [6.24696, 46.38627], [6.24701, 46.38635], [6.24711, 46.38634], [6.24708, 46.38645], [6.24719, 46.38663], [6.2473, 46.38659], [6.24732, 46.38671], [6.24745, 46.38673], [6.24767, 46.38692], [6.24754, 46.387], [6.24776, 46.38711], [6.24813, 46.3869], [6.24831, 46.387], [6.24864, 46.38725], [6.24841, 46.38756], [6.24878, 46.38779], [6.24999, 46.38845], [6.2501, 46.38844], [6.2501, 46.38851], [6.25016, 46.38847], [6.25025, 46.38859], [6.25134, 46.38919], [6.25144, 46.38917], [6.25197, 46.38955], [6.2521, 46.38949], [6.25234, 46.38982], [6.25471, 46.39108], [6.25556, 46.39138], [6.25577, 46.39122], [6.25722, 46.39186], [6.25762, 46.39193], [6.25746, 46.39211], [6.25779, 46.39223], [6.25777, 46.39235], [6.2581, 46.39255], [6.25805, 46.39262], [6.25818, 46.39278], [6.25811, 46.39283], [6.25852, 46.39299], [6.26003, 46.39306], [6.26027, 46.3929], [6.26068, 46.39294], [6.26075, 46.39305], [6.26094, 46.39298], [6.2629, 46.39292], [6.26302, 46.3928], [6.2631, 46.39275], [6.263, 46.39284], [6.26465, 46.39273], [6.26551, 46.39253], [6.26553, 46.39223], [6.26589, 46.39213], [6.26598, 46.39227], [6.26615, 46.39234], [6.2668, 46.39203], [6.26674, 46.39197], [6.26748, 46.3917], [6.2673, 46.39156], [6.2669, 46.3915], [6.26709, 46.39135], [6.267, 46.39123], [6.2677, 46.39152], [6.26785, 46.39141], [6.26757, 46.39123], [6.26747, 46.39105], [6.26753, 46.39103], [6.26786, 46.39112], [6.27024, 46.39104], [6.27022, 46.39124], [6.27138, 46.39099], [6.27325, 46.39035], [6.27391, 46.39026], [6.27408, 46.39007], [6.27403, 46.39017], [6.27422, 46.39052], [6.27499, 46.39115], [6.27523, 46.39161], [6.27518, 46.39174], [6.27473, 46.39172], [6.27469, 46.39159], [6.27482, 46.39135], [6.27467, 46.39101], [6.27426, 46.39076], [6.27397, 46.3907], [6.27366, 46.39074], [6.27312, 46.39095], [6.27263, 46.39101], [6.27215, 46.39134], [6.27163, 46.39133], [6.27118, 46.39147], [6.27064, 46.39138], [6.27027, 46.39149], [6.27108, 46.39187], [6.27195, 46.39175], [6.27277, 46.39192], [6.27338, 46.39196], [6.27406, 46.39177], [6.27463, 46.3921], [6.27479, 46.39209], [6.27481, 46.39201], [6.27486, 46.39208], [6.27521, 46.39212], [6.27529, 46.39175], [6.27675, 46.39321], [6.27716, 46.39373], [6.27802, 46.39579], [6.27813, 46.3959], [6.27867, 46.39591], [6.27837, 46.39608], [6.27912, 46.39631], [6.27913, 46.39589], [6.27936, 46.39627], [6.28107, 46.39647], [6.28167, 46.39671], [6.28214, 46.39708], [6.28238, 46.39757], [6.28219, 46.39785], [6.28222, 46.39824], [6.28281, 46.39926], [6.28301, 46.40026], [6.28298, 46.40047], [6.2821, 46.40229], [6.3391, 46.40229], [6.3391, 46.36962]], [[6.1688, 46.26915], [6.16892, 46.26908], [6.16887, 46.26913], [6.1688, 46.26915]], [[6.2792, 46.3958], [6.27923, 46.39581], [6.27915, 46.39585], [6.2792, 46.3958]], [[6.23195, 46.28718], [6.23197, 46.2872], [6.23185, 46.28727], [6.23195, 46.28718]], [[6.22943, 46.28626], [6.22959, 46.28629], [6.22959, 46.28632], [6.22943, 46.28626]], [[6.15325, 46.24404], [6.15338, 46.244], [6.15342, 46.24389], [6.1534, 46.24401], [6.15325, 46.24404]], [[6.16953, 46.28649], [6.16965, 46.28657], [6.16955, 46.28658], [6.16953, 46.28649]], [[6.21143, 46.26704], [6.21125, 46.267], [6.21108, 46.2669], [6.21143, 46.26704]], [[6.22783, 46.28586], [6.22755, 46.28578], [6.22755, 46.2857], [6.22758, 46.28566], [6.22757, 46.28577], [6.22783, 46.28586]], [[6.15338, 46.24205], [6.15346, 46.24189], [6.15333, 46.2418], [6.15348, 46.2419], [6.15347, 46.24199], [6.15338, 46.24205]], [[6.15319, 46.24447], [6.15287, 46.24444], [6.15321, 46.24445], [6.15319, 46.24447]], [[6.17823, 46.30046], [6.17811, 46.30045], [6.17816, 46.30038], [6.17823, 46.30046]], [[6.19309, 46.23998], [6.19329, 46.23992], [6.19311, 46.23999], [6.19315, 46.2401], [6.19309, 46.23998]], [[6.21407, 46.27035], [6.21415, 46.27034], [6.21421, 46.27045], [6.21441, 46.27042], [6.21421, 46.27047], [6.21407, 46.27035]], [[6.22552, 46.28307], [6.22546, 46.28297], [6.22551, 46.28292], [6.22552, 46.28306], [6.22571, 46.28313], [6.22552, 46.28307]], [[6.16689, 46.21201], [6.1669, 46.21201], [6.16639, 46.21254], [6.16689, 46.21201]], [[6.22075, 46.27849], [6.22084, 46.27849], [6.22113, 46.27841], [6.22079, 46.27854], [6.22075, 46.27849]], [[6.22676, 46.2846], [6.22674, 46.28452], [6.2268, 46.28445], [6.22682, 46.28463], [6.22708, 46.28466], [6.22691, 46.28468], [6.22676, 46.2846]], [[6.15091, 46.23661], [6.15104, 46.23666], [6.15107, 46.23678], [6.15098, 46.23688], [6.1509, 46.23689], [6.15105, 46.23678], [6.15091, 46.23661]], [[6.21043, 46.2667], [6.21067, 46.2666], [6.2103, 46.26688], [6.21043, 46.2667]], [[6.2111, 46.3501], [6.21116, 46.35014], [6.21119, 46.35025], [6.21114, 46.35034], [6.21104, 46.35041], [6.21116, 46.35025], [6.2111, 46.3501]], [[6.23354, 46.28836], [6.23343, 46.28819], [6.2336, 46.28836], [6.23391, 46.28829], [6.23366, 46.28838], [6.23354, 46.28836]], [[6.20777, 46.3454], [6.20773, 46.34522], [6.20773, 46.34507], [6.20779, 46.3454], [6.20771, 46.34544], [6.20756, 46.34548], [6.20777, 46.3454]], [[6.15245, 46.21747], [6.1524, 46.21759], [6.15232, 46.2176], [6.15233, 46.21755], [6.15245, 46.21747]], [[6.16941, 46.26868], [6.16936, 46.26855], [6.16918, 46.26844], [6.16935, 46.26852], [6.16943, 46.26867], [6.16942, 46.26876], [6.16935, 46.26885], [6.16928, 46.26891], [6.16919, 46.26895], [6.16941, 46.26868]], [[6.17749, 46.29981], [6.1773, 46.29973], [6.17732, 46.29966], [6.17749, 46.29981]], [[6.21714, 46.27287], [6.21707, 46.27295], [6.2171, 46.27304], [6.21736, 46.27308], [6.21707, 46.27305], [6.21704, 46.27294], [6.21714, 46.27287]], [[6.15662, 46.21007], [6.15696, 46.21004], [6.15699, 46.21], [6.15693, 46.20994], [6.15703, 46.21], [6.15693, 46.2101], [6.15662, 46.21007]], [[6.24108, 46.2988], [6.24133, 46.29852], [6.24131, 46.29859], [6.24109, 46.29882], [6.24105, 46.29898], [6.24112, 46.29914], [6.24138, 46.29934], [6.24139, 46.2994], [6.24136, 46.29945], [6.24136, 46.29934], [6.24113, 46.29917], [6.24103, 46.29899], [6.24108, 46.2988]], [[6.1674, 46.21369], [6.16747, 46.21368], [6.16742, 46.21419], [6.16739, 46.21417], [6.1674, 46.21369]], [[6.15197, 46.22363], [6.15187, 46.22385], [6.15153, 46.22419], [6.15147, 46.22418], [6.15197, 46.22363]], [[6.15219, 46.21804], [6.15263, 46.21784], [6.15245, 46.21801], [6.15219, 46.21804]], [[6.15602, 46.20742], [6.15583, 46.20738], [6.15603, 46.2074], [6.15711, 46.20631], [6.15714, 46.20632], [6.15604, 46.20741], [6.15599, 46.20802], [6.15602, 46.20742]], [[6.27421, 46.3915], [6.27441, 46.39134], [6.27461, 46.39135], [6.27443, 46.39154], [6.27427, 46.39157], [6.27421, 46.3915]], [[6.16775, 46.21346], [6.16627, 46.21275], [6.16778, 46.21343], [6.16775, 46.21346]], [[6.17025, 46.29201], [6.17116, 46.29172], [6.17128, 46.29154], [6.17121, 46.29129], [6.17128, 46.29128], [6.17135, 46.29155], [6.17123, 46.29174], [6.17025, 46.29201]], [[6.16882, 46.2151], [6.16879, 46.21514], [6.16715, 46.21438], [6.16721, 46.21437], [6.16882, 46.2151]], [[6.19456, 46.25695], [6.19415, 46.25666], [6.19436, 46.25653], [6.19431, 46.25639], [6.19409, 46.25636], [6.19403, 46.25631], [6.19458, 46.25641], [6.19456, 46.25695]], [[6.17021, 46.27196], [6.17033, 46.27186], [6.17018, 46.27163], [6.17078, 46.27134], [6.17023, 46.27167], [6.17084, 46.27277], [6.17063, 46.27272], [6.17046, 46.27225], [6.17021, 46.27196]], [[6.27354, 46.39177], [6.27313, 46.39187], [6.27276, 46.39176], [6.2734, 46.3916], [6.27355, 46.39166], [6.27354, 46.39177]], [[6.19416, 46.25752], [6.1942, 46.25691], [6.19417, 46.2568], [6.19407, 46.25681], [6.19411, 46.25677], [6.19454, 46.25702], [6.1943, 46.25751], [6.19458, 46.25781], [6.19451, 46.25785], [6.19416, 46.25752]]]}}]}